<?xml version="1.0" encoding="UTF-8"?>
<gpx creator="StravaGPX" version="1.1" xmlns="http://www.topografix.com/GPX/1/1" xmlns:xsi="http://www.w3.org/2001/XMLSchema-instance" xsi:schemaLocation="http://www.topografix.com/GPX/1/1 http://www.topografix.com/GPX/1/1/gpx.xsd">
 <metadata>
  <name>Mont Chaberton</name>
  <author>
   <name>Michele Sarzana</name>
   <link href="https://www.strava.com/athletes/10885204"/>
  </author>
  <copyright author="OpenStreetMap contributors">
   <year>2020</year>
   <license>https://www.openstreetmap.org/copyright</license>
  </copyright>
  <link href="https://www.strava.com/routes/3523050058701453106"/>
 </metadata>
 <trk>
  <name>Mont Chaberton</name>
  <link href="https://www.strava.com/routes/3523050058701453106"/>
  <type>trail_running</type>
  <trkseg>
   <trkpt lat="44.93553000000001" lon="6.72902">
    <ele>1887.1700000000003</ele>
   </trkpt>
   <trkpt lat="44.935480000000005" lon="6.729120000000001">
    <ele>1881.1000000000001</ele>
   </trkpt>
   <trkpt lat="44.935570000000006" lon="6.729610000000001">
    <ele>1882.0700000000002</ele>
   </trkpt>
   <trkpt lat="44.93558" lon="6.729940000000001">
    <ele>1882.42</ele>
   </trkpt>
   <trkpt lat="44.93556" lon="6.7302800000000005">
    <ele>1882.5800000000002</ele>
   </trkpt>
   <trkpt lat="44.935500000000005" lon="6.730840000000001">
    <ele>1882.69</ele>
   </trkpt>
   <trkpt lat="44.935390000000005" lon="6.731190000000001">
    <ele>1881.46</ele>
   </trkpt>
   <trkpt lat="44.93538" lon="6.731510000000001">
    <ele>1879.6100000000001</ele>
   </trkpt>
   <trkpt lat="44.93529" lon="6.73167">
    <ele>1878.44</ele>
   </trkpt>
   <trkpt lat="44.935080000000006" lon="6.732120000000001">
    <ele>1874.1900000000003</ele>
   </trkpt>
   <trkpt lat="44.93502" lon="6.732430000000001">
    <ele>1872.78</ele>
   </trkpt>
   <trkpt lat="44.935" lon="6.7327200000000005">
    <ele>1872.91</ele>
   </trkpt>
   <trkpt lat="44.935" lon="6.733110000000001">
    <ele>1871.2700000000002</ele>
   </trkpt>
   <trkpt lat="44.935030000000005" lon="6.733460000000001">
    <ele>1869.9200000000003</ele>
   </trkpt>
   <trkpt lat="44.93493" lon="6.733860000000001">
    <ele>1868.8000000000002</ele>
   </trkpt>
   <trkpt lat="44.93491" lon="6.734050000000001">
    <ele>1867.7100000000003</ele>
   </trkpt>
   <trkpt lat="44.93491" lon="6.73425">
    <ele>1867.3000000000002</ele>
   </trkpt>
   <trkpt lat="44.93498000317695" lon="6.735104998802314">
    <ele>1865.2</ele>
   </trkpt>
   <trkpt lat="44.935050000000004" lon="6.73596">
    <ele>1865.17</ele>
   </trkpt>
   <trkpt lat="44.93513" lon="6.736320000000001">
    <ele>1867.9500000000003</ele>
   </trkpt>
   <trkpt lat="44.93527" lon="6.736680000000001">
    <ele>1868.75</ele>
   </trkpt>
   <trkpt lat="44.93544000000001" lon="6.73702">
    <ele>1869.13</ele>
   </trkpt>
   <trkpt lat="44.93565" lon="6.737080000000001">
    <ele>1869.17</ele>
   </trkpt>
   <trkpt lat="44.93571" lon="6.73711">
    <ele>1869.14</ele>
   </trkpt>
   <trkpt lat="44.93576" lon="6.73716">
    <ele>1869.14</ele>
   </trkpt>
   <trkpt lat="44.935840000000006" lon="6.737410000000001">
    <ele>1869.8000000000002</ele>
   </trkpt>
   <trkpt lat="44.93601" lon="6.738460000000001">
    <ele>1875.5300000000002</ele>
   </trkpt>
   <trkpt lat="44.93603" lon="6.738760000000001">
    <ele>1876.64</ele>
   </trkpt>
   <trkpt lat="44.936060000000005" lon="6.7388">
    <ele>1877.28</ele>
   </trkpt>
   <trkpt lat="44.936265001960265" lon="6.73947499749876">
    <ele>1881.2700000000002</ele>
   </trkpt>
   <trkpt lat="44.93647000000001" lon="6.740150000000001">
    <ele>1883.0000000000002</ele>
   </trkpt>
   <trkpt lat="44.93666" lon="6.74063">
    <ele>1884.2</ele>
   </trkpt>
   <trkpt lat="44.93672" lon="6.7407200000000005">
    <ele>1885.2300000000002</ele>
   </trkpt>
   <trkpt lat="44.93683" lon="6.74082">
    <ele>1885.64</ele>
   </trkpt>
   <trkpt lat="44.93692" lon="6.74084">
    <ele>1886.94</ele>
   </trkpt>
   <trkpt lat="44.937160000000006" lon="6.740760000000001">
    <ele>1890.03</ele>
   </trkpt>
   <trkpt lat="44.93732000000001" lon="6.740640000000001">
    <ele>1891.3000000000002</ele>
   </trkpt>
   <trkpt lat="44.93751" lon="6.74042">
    <ele>1892.65</ele>
   </trkpt>
   <trkpt lat="44.93795" lon="6.740130000000001">
    <ele>1894.0500000000002</ele>
   </trkpt>
   <trkpt lat="44.93833" lon="6.739940000000001">
    <ele>1895.8500000000001</ele>
   </trkpt>
   <trkpt lat="44.93854" lon="6.73988">
    <ele>1896.57</ele>
   </trkpt>
   <trkpt lat="44.938680000000005" lon="6.739870000000001">
    <ele>1897.21</ele>
   </trkpt>
   <trkpt lat="44.938810000000004" lon="6.739890000000001">
    <ele>1898.26</ele>
   </trkpt>
   <trkpt lat="44.93896" lon="6.7399700000000005">
    <ele>1899.2900000000002</ele>
   </trkpt>
   <trkpt lat="44.939170000000004" lon="6.740150000000001">
    <ele>1901.43</ele>
   </trkpt>
   <trkpt lat="44.9393" lon="6.740200000000001">
    <ele>1904.98</ele>
   </trkpt>
   <trkpt lat="44.93936" lon="6.740200000000001">
    <ele>1904.98</ele>
   </trkpt>
   <trkpt lat="44.939440000000005" lon="6.740170000000001">
    <ele>1907.6000000000001</ele>
   </trkpt>
   <trkpt lat="44.939640000000004" lon="6.739890000000001">
    <ele>1909.94</ele>
   </trkpt>
   <trkpt lat="44.939710000000005" lon="6.73983">
    <ele>1910.91</ele>
   </trkpt>
   <trkpt lat="44.9399" lon="6.739840000000001">
    <ele>1912.7800000000002</ele>
   </trkpt>
   <trkpt lat="44.93994000000001" lon="6.739820000000001">
    <ele>1913.0300000000002</ele>
   </trkpt>
   <trkpt lat="44.940200000000004" lon="6.739490000000001">
    <ele>1914.21</ele>
   </trkpt>
   <trkpt lat="44.94028" lon="6.7394300000000005">
    <ele>1914.5800000000002</ele>
   </trkpt>
   <trkpt lat="44.94039" lon="6.73939">
    <ele>1915.31</ele>
   </trkpt>
   <trkpt lat="44.94050000000001" lon="6.7394300000000005">
    <ele>1915.96</ele>
   </trkpt>
   <trkpt lat="44.94055" lon="6.739490000000001">
    <ele>1915.96</ele>
   </trkpt>
   <trkpt lat="44.940650000000005" lon="6.739700000000001">
    <ele>1919.2700000000002</ele>
   </trkpt>
   <trkpt lat="44.940690000000004" lon="6.73972">
    <ele>1919.73</ele>
   </trkpt>
   <trkpt lat="44.94082" lon="6.739730000000001">
    <ele>1920.7900000000002</ele>
   </trkpt>
   <trkpt lat="44.941010000000006" lon="6.73969">
    <ele>1922.2500000000002</ele>
   </trkpt>
   <trkpt lat="44.94131" lon="6.739700000000001">
    <ele>1924.3300000000002</ele>
   </trkpt>
   <trkpt lat="44.94173000000001" lon="6.739660000000001">
    <ele>1928.6100000000001</ele>
   </trkpt>
   <trkpt lat="44.941950000000006" lon="6.73962">
    <ele>1932.2400000000002</ele>
   </trkpt>
   <trkpt lat="44.942040000000006" lon="6.73955">
    <ele>1933.5700000000002</ele>
   </trkpt>
   <trkpt lat="44.94216" lon="6.73941">
    <ele>1935.66</ele>
   </trkpt>
   <trkpt lat="44.942240000000005" lon="6.739350000000001">
    <ele>1936.4900000000002</ele>
   </trkpt>
   <trkpt lat="44.942460000000004" lon="6.739310000000001">
    <ele>1938.5100000000002</ele>
   </trkpt>
   <trkpt lat="44.942690000000006" lon="6.7391700000000005">
    <ele>1939.5800000000002</ele>
   </trkpt>
   <trkpt lat="44.94285000000001" lon="6.73911">
    <ele>1940.6200000000001</ele>
   </trkpt>
   <trkpt lat="44.94296000000001" lon="6.739090000000001">
    <ele>1941.75</ele>
   </trkpt>
   <trkpt lat="44.94321" lon="6.73915">
    <ele>1945.16</ele>
   </trkpt>
   <trkpt lat="44.9433" lon="6.739140000000001">
    <ele>1946.3700000000001</ele>
   </trkpt>
   <trkpt lat="44.94341000000001" lon="6.7391000000000005">
    <ele>1947.4900000000002</ele>
   </trkpt>
   <trkpt lat="44.94348" lon="6.73908">
    <ele>1948.02</ele>
   </trkpt>
   <trkpt lat="44.9438" lon="6.738880000000001">
    <ele>1949.66</ele>
   </trkpt>
   <trkpt lat="44.94389" lon="6.738840000000001">
    <ele>1950.8100000000002</ele>
   </trkpt>
   <trkpt lat="44.944100000000006" lon="6.738810000000001">
    <ele>1952.14</ele>
   </trkpt>
   <trkpt lat="44.94433" lon="6.738700000000001">
    <ele>1953.45</ele>
   </trkpt>
   <trkpt lat="44.94485" lon="6.738580000000001">
    <ele>1956.2700000000002</ele>
   </trkpt>
   <trkpt lat="44.945220000000006" lon="6.738510000000001">
    <ele>1957.5200000000002</ele>
   </trkpt>
   <trkpt lat="44.94540000000001" lon="6.7383500000000005">
    <ele>1958.83</ele>
   </trkpt>
   <trkpt lat="44.945620000000005" lon="6.738250000000001">
    <ele>1960.4500000000003</ele>
   </trkpt>
   <trkpt lat="44.94605000000001" lon="6.73798">
    <ele>1964.1800000000003</ele>
   </trkpt>
   <trkpt lat="44.94619" lon="6.73793">
    <ele>1965.17</ele>
   </trkpt>
   <trkpt lat="44.94626" lon="6.7378800000000005">
    <ele>1966.26</ele>
   </trkpt>
   <trkpt lat="44.94653" lon="6.737830000000001">
    <ele>1967.7600000000002</ele>
   </trkpt>
   <trkpt lat="44.94668" lon="6.73777">
    <ele>1969.9100000000003</ele>
   </trkpt>
   <trkpt lat="44.9468" lon="6.737760000000001">
    <ele>1970.26</ele>
   </trkpt>
   <trkpt lat="44.94695" lon="6.737690000000001">
    <ele>1970.8500000000001</ele>
   </trkpt>
   <trkpt lat="44.94737000000001" lon="6.73763">
    <ele>1973.88</ele>
   </trkpt>
   <trkpt lat="44.94751" lon="6.737640000000001">
    <ele>1974.2700000000002</ele>
   </trkpt>
   <trkpt lat="44.947680000000005" lon="6.737610000000001">
    <ele>1975.92</ele>
   </trkpt>
   <trkpt lat="44.947970000000005" lon="6.7376700000000005">
    <ele>1979.15</ele>
   </trkpt>
   <trkpt lat="44.948080000000004" lon="6.7376700000000005">
    <ele>1980.0600000000002</ele>
   </trkpt>
   <trkpt lat="44.94836" lon="6.7376000000000005">
    <ele>1983.69</ele>
   </trkpt>
   <trkpt lat="44.94841" lon="6.73758">
    <ele>1983.69</ele>
   </trkpt>
   <trkpt lat="44.948660000000004" lon="6.737550000000001">
    <ele>1987.0900000000001</ele>
   </trkpt>
   <trkpt lat="44.948820000000005" lon="6.73751">
    <ele>1988.32</ele>
   </trkpt>
   <trkpt lat="44.949000000000005" lon="6.737520000000001">
    <ele>1992.3100000000002</ele>
   </trkpt>
   <trkpt lat="44.949070000000006" lon="6.737500000000001">
    <ele>1993.7300000000002</ele>
   </trkpt>
   <trkpt lat="44.949690000000004" lon="6.7371300000000005">
    <ele>2004.82</ele>
   </trkpt>
   <trkpt lat="44.94999000000001" lon="6.737000000000001">
    <ele>2011.4</ele>
   </trkpt>
   <trkpt lat="44.95026000000001" lon="6.736770000000001">
    <ele>2020.6699999999998</ele>
   </trkpt>
   <trkpt lat="44.95069" lon="6.736260000000001">
    <ele>2027.74</ele>
   </trkpt>
   <trkpt lat="44.950810000000004" lon="6.736090000000001">
    <ele>2030.1</ele>
   </trkpt>
   <trkpt lat="44.95111000000001" lon="6.73594">
    <ele>2036.34</ele>
   </trkpt>
   <trkpt lat="44.95134" lon="6.735760000000001">
    <ele>2042.3500000000004</ele>
   </trkpt>
   <trkpt lat="44.95143" lon="6.735720000000001">
    <ele>2043.52</ele>
   </trkpt>
   <trkpt lat="44.9515" lon="6.735720000000001">
    <ele>2044.89</ele>
   </trkpt>
   <trkpt lat="44.95163" lon="6.735740000000001">
    <ele>2046.3500000000004</ele>
   </trkpt>
   <trkpt lat="44.95192" lon="6.73575">
    <ele>2047.1200000000001</ele>
   </trkpt>
   <trkpt lat="44.952040000000004" lon="6.735830000000001">
    <ele>2048.29</ele>
   </trkpt>
   <trkpt lat="44.952130000000004" lon="6.735860000000001">
    <ele>2049.88</ele>
   </trkpt>
   <trkpt lat="44.95248" lon="6.735740000000001">
    <ele>2051.76</ele>
   </trkpt>
   <trkpt lat="44.95270000000001" lon="6.735570000000001">
    <ele>2052.6400000000003</ele>
   </trkpt>
   <trkpt lat="44.95279" lon="6.735530000000001">
    <ele>2053.34</ele>
   </trkpt>
   <trkpt lat="44.953050000000005" lon="6.7355100000000006">
    <ele>2056.8500000000004</ele>
   </trkpt>
   <trkpt lat="44.95348500020463" lon="6.735280001757217">
    <ele>2062.86</ele>
   </trkpt>
   <trkpt lat="44.953920000000004" lon="6.73505">
    <ele>2064.84</ele>
   </trkpt>
   <trkpt lat="44.954130000000006" lon="6.73491">
    <ele>2064.75</ele>
   </trkpt>
   <trkpt lat="44.95429" lon="6.73507">
    <ele>2067.66</ele>
   </trkpt>
   <trkpt lat="44.954570000000004" lon="6.7351600000000005">
    <ele>2076.1000000000004</ele>
   </trkpt>
   <trkpt lat="44.954640000000005" lon="6.735150000000001">
    <ele>2076.1000000000004</ele>
   </trkpt>
   <trkpt lat="44.95468" lon="6.73519">
    <ele>2080.98</ele>
   </trkpt>
   <trkpt lat="44.95477" lon="6.735220000000001">
    <ele>2080.98</ele>
   </trkpt>
   <trkpt lat="44.95485" lon="6.735270000000001">
    <ele>2084.77</ele>
   </trkpt>
   <trkpt lat="44.95519" lon="6.735080000000001">
    <ele>2097.1200000000003</ele>
   </trkpt>
   <trkpt lat="44.955360000000006" lon="6.735010000000001">
    <ele>2100.93</ele>
   </trkpt>
   <trkpt lat="44.955740000000006" lon="6.735040000000001">
    <ele>2109.09</ele>
   </trkpt>
   <trkpt lat="44.95581000000001" lon="6.7350900000000005">
    <ele>2115.96</ele>
   </trkpt>
   <trkpt lat="44.955890000000004" lon="6.735060000000001">
    <ele>2115.96</ele>
   </trkpt>
   <trkpt lat="44.955980000000004" lon="6.73507">
    <ele>2120.06</ele>
   </trkpt>
   <trkpt lat="44.956050000000005" lon="6.73505">
    <ele>2120.06</ele>
   </trkpt>
   <trkpt lat="44.95618" lon="6.734970000000001">
    <ele>2122.5400000000004</ele>
   </trkpt>
   <trkpt lat="44.95629" lon="6.73481">
    <ele>2124.13</ele>
   </trkpt>
   <trkpt lat="44.95637000000001" lon="6.734660000000001">
    <ele>2125.5</ele>
   </trkpt>
   <trkpt lat="44.95646000000001" lon="6.734610000000001">
    <ele>2128.09</ele>
   </trkpt>
   <trkpt lat="44.95658" lon="6.734490000000001">
    <ele>2129.2400000000002</ele>
   </trkpt>
   <trkpt lat="44.956830000000004" lon="6.73411">
    <ele>2129.98</ele>
   </trkpt>
   <trkpt lat="44.956970000000005" lon="6.733950000000001">
    <ele>2129.21</ele>
   </trkpt>
   <trkpt lat="44.95707" lon="6.733750000000001">
    <ele>2129.1800000000003</ele>
   </trkpt>
   <trkpt lat="44.95713000000001" lon="6.733720000000001">
    <ele>2129.1800000000003</ele>
   </trkpt>
   <trkpt lat="44.957300000000004" lon="6.73357">
    <ele>2130.6800000000003</ele>
   </trkpt>
   <trkpt lat="44.957390000000004" lon="6.73352">
    <ele>2131.32</ele>
   </trkpt>
   <trkpt lat="44.957750000000004" lon="6.73343">
    <ele>2135.3500000000004</ele>
   </trkpt>
   <trkpt lat="44.95799" lon="6.73317">
    <ele>2136.9700000000003</ele>
   </trkpt>
   <trkpt lat="44.958360000000006" lon="6.732950000000001">
    <ele>2137.53</ele>
   </trkpt>
   <trkpt lat="44.958490000000005" lon="6.732850000000001">
    <ele>2136.66</ele>
   </trkpt>
   <trkpt lat="44.95866" lon="6.73277">
    <ele>2134.94</ele>
   </trkpt>
   <trkpt lat="44.95872000000001" lon="6.732760000000001">
    <ele>2134.7599999999998</ele>
   </trkpt>
   <trkpt lat="44.95910000000001" lon="6.732900000000001">
    <ele>2138.2799999999997</ele>
   </trkpt>
   <trkpt lat="44.95933" lon="6.732880000000001">
    <ele>2141.86</ele>
   </trkpt>
   <trkpt lat="44.95953" lon="6.73289">
    <ele>2145.44</ele>
   </trkpt>
   <trkpt lat="44.95969" lon="6.7328600000000005">
    <ele>2146.53</ele>
   </trkpt>
   <trkpt lat="44.959830000000004" lon="6.7329300000000005">
    <ele>2148.6</ele>
   </trkpt>
   <trkpt lat="44.960260000000005" lon="6.733090000000001">
    <ele>2153.15</ele>
   </trkpt>
   <trkpt lat="44.960390000000004" lon="6.73308">
    <ele>2155.37</ele>
   </trkpt>
   <trkpt lat="44.96058" lon="6.733090000000001">
    <ele>2158.96</ele>
   </trkpt>
   <trkpt lat="44.96112" lon="6.733180000000001">
    <ele>2167.55</ele>
   </trkpt>
   <trkpt lat="44.96123" lon="6.73322">
    <ele>2169.1800000000003</ele>
   </trkpt>
   <trkpt lat="44.96141" lon="6.733210000000001">
    <ele>2173.5299999999997</ele>
   </trkpt>
   <trkpt lat="44.96154000000001" lon="6.73317">
    <ele>2177.61</ele>
   </trkpt>
   <trkpt lat="44.96168" lon="6.733180000000001">
    <ele>2180.13</ele>
   </trkpt>
   <trkpt lat="44.961830000000006" lon="6.733160000000001">
    <ele>2180.92</ele>
   </trkpt>
   <trkpt lat="44.961960000000005" lon="6.73317">
    <ele>2183.8700000000003</ele>
   </trkpt>
   <trkpt lat="44.96222" lon="6.733300000000001">
    <ele>2192.27</ele>
   </trkpt>
   <trkpt lat="44.96244" lon="6.7336100000000005">
    <ele>2197.6400000000003</ele>
   </trkpt>
   <trkpt lat="44.962500000000006" lon="6.73366">
    <ele>2198.68</ele>
   </trkpt>
   <trkpt lat="44.96257000000001" lon="6.7336800000000006">
    <ele>2199.65</ele>
   </trkpt>
   <trkpt lat="44.962630000000004" lon="6.73378">
    <ele>2201.4900000000002</ele>
   </trkpt>
   <trkpt lat="44.96264" lon="6.73385">
    <ele>2202.48</ele>
   </trkpt>
   <trkpt lat="44.962740000000004" lon="6.73385">
    <ele>2204.7000000000003</ele>
   </trkpt>
   <trkpt lat="44.96284000000001" lon="6.733980000000001">
    <ele>2209.3700000000003</ele>
   </trkpt>
   <trkpt lat="44.962880000000006" lon="6.73406">
    <ele>2211.01</ele>
   </trkpt>
   <trkpt lat="44.96298" lon="6.734170000000001">
    <ele>2212.4700000000003</ele>
   </trkpt>
   <trkpt lat="44.96303" lon="6.734190000000001">
    <ele>2214.14</ele>
   </trkpt>
   <trkpt lat="44.963100000000004" lon="6.734170000000001">
    <ele>2214.14</ele>
   </trkpt>
   <trkpt lat="44.96314" lon="6.7342">
    <ele>2217.13</ele>
   </trkpt>
   <trkpt lat="44.96331000000001" lon="6.7342">
    <ele>2222.3700000000003</ele>
   </trkpt>
   <trkpt lat="44.96340000000001" lon="6.73423">
    <ele>2223.97</ele>
   </trkpt>
   <trkpt lat="44.96347" lon="6.734280000000001">
    <ele>2227.4700000000003</ele>
   </trkpt>
   <trkpt lat="44.96369000000001" lon="6.73432">
    <ele>2239.09</ele>
   </trkpt>
   <trkpt lat="44.9637" lon="6.734360000000001">
    <ele>2239.09</ele>
   </trkpt>
   <trkpt lat="44.96378000000001" lon="6.73437">
    <ele>2244.25</ele>
   </trkpt>
   <trkpt lat="44.96379" lon="6.7344100000000005">
    <ele>2244.25</ele>
   </trkpt>
   <trkpt lat="44.96363" lon="6.734610000000001">
    <ele>2250.3100000000004</ele>
   </trkpt>
   <trkpt lat="44.963640000000005" lon="6.73463">
    <ele>2250.3100000000004</ele>
   </trkpt>
   <trkpt lat="44.96385" lon="6.734610000000001">
    <ele>2253.6200000000003</ele>
   </trkpt>
   <trkpt lat="44.96428" lon="6.73432">
    <ele>2258.55</ele>
   </trkpt>
   <trkpt lat="44.96432" lon="6.73434">
    <ele>2258.55</ele>
   </trkpt>
   <trkpt lat="44.964360000000006" lon="6.734310000000001">
    <ele>2259.4100000000003</ele>
   </trkpt>
   <trkpt lat="44.964400000000005" lon="6.734330000000001">
    <ele>2259.4100000000003</ele>
   </trkpt>
   <trkpt lat="44.96443000000001" lon="6.73432">
    <ele>2259.4100000000003</ele>
   </trkpt>
   <trkpt lat="44.964510000000004" lon="6.73434">
    <ele>2261.21</ele>
   </trkpt>
   <trkpt lat="44.96453" lon="6.7344100000000005">
    <ele>2261.78</ele>
   </trkpt>
   <trkpt lat="44.96466" lon="6.734590000000001">
    <ele>2263.62</ele>
   </trkpt>
   <trkpt lat="44.964740000000006" lon="6.73465">
    <ele>2264.67</ele>
   </trkpt>
   <trkpt lat="44.96481000000001" lon="6.734660000000001">
    <ele>2265.27</ele>
   </trkpt>
   <trkpt lat="44.96486" lon="6.73472">
    <ele>2266.6400000000003</ele>
   </trkpt>
   <trkpt lat="44.964940000000006" lon="6.734750000000001">
    <ele>2268.52</ele>
   </trkpt>
   <trkpt lat="44.96501000000001" lon="6.734710000000001">
    <ele>2269.7400000000002</ele>
   </trkpt>
   <trkpt lat="44.96511" lon="6.73474">
    <ele>2273.8500000000004</ele>
   </trkpt>
   <trkpt lat="44.965140000000005" lon="6.73479">
    <ele>2273.8500000000004</ele>
   </trkpt>
   <trkpt lat="44.965180000000004" lon="6.734820000000001">
    <ele>2273.8500000000004</ele>
   </trkpt>
   <trkpt lat="44.96522" lon="6.7349000000000006">
    <ele>2279.58</ele>
   </trkpt>
   <trkpt lat="44.96531" lon="6.73481">
    <ele>2282.1200000000003</ele>
   </trkpt>
   <trkpt lat="44.96535" lon="6.73481">
    <ele>2283.2400000000002</ele>
   </trkpt>
   <trkpt lat="44.965360000000004" lon="6.734850000000001">
    <ele>2283.2400000000002</ele>
   </trkpt>
   <trkpt lat="44.96526" lon="6.735220000000001">
    <ele>2289.33</ele>
   </trkpt>
   <trkpt lat="44.96526" lon="6.735270000000001">
    <ele>2289.33</ele>
   </trkpt>
   <trkpt lat="44.965300000000006" lon="6.735270000000001">
    <ele>2292.52</ele>
   </trkpt>
   <trkpt lat="44.96542" lon="6.735220000000001">
    <ele>2294.8</ele>
   </trkpt>
   <trkpt lat="44.96551" lon="6.735250000000001">
    <ele>2297.3700000000003</ele>
   </trkpt>
   <trkpt lat="44.96566000000001" lon="6.73526">
    <ele>2297.3700000000003</ele>
   </trkpt>
   <trkpt lat="44.965590000000006" lon="6.735410000000001">
    <ele>2308.44</ele>
   </trkpt>
   <trkpt lat="44.96576" lon="6.735430000000001">
    <ele>2311.02</ele>
   </trkpt>
   <trkpt lat="44.965830000000004" lon="6.73547">
    <ele>2314.68</ele>
   </trkpt>
   <trkpt lat="44.96584000000001" lon="6.73549">
    <ele>2314.68</ele>
   </trkpt>
   <trkpt lat="44.965790000000005" lon="6.735530000000001">
    <ele>2314.68</ele>
   </trkpt>
   <trkpt lat="44.965790000000005" lon="6.735570000000001">
    <ele>2314.68</ele>
   </trkpt>
   <trkpt lat="44.965860000000006" lon="6.73561">
    <ele>2321.7700000000004</ele>
   </trkpt>
   <trkpt lat="44.96593" lon="6.735620000000001">
    <ele>2321.7700000000004</ele>
   </trkpt>
   <trkpt lat="44.965860000000006" lon="6.735740000000001">
    <ele>2324.19</ele>
   </trkpt>
   <trkpt lat="44.96611" lon="6.73596">
    <ele>2332.55</ele>
   </trkpt>
   <trkpt lat="44.96611" lon="6.7359800000000005">
    <ele>2332.55</ele>
   </trkpt>
   <trkpt lat="44.96603" lon="6.736020000000001">
    <ele>2334.63</ele>
   </trkpt>
   <trkpt lat="44.966210000000004" lon="6.73622">
    <ele>2340.38</ele>
   </trkpt>
   <trkpt lat="44.966330000000006" lon="6.736300000000001">
    <ele>2344.23</ele>
   </trkpt>
   <trkpt lat="44.966460000000005" lon="6.736350000000001">
    <ele>2345.6</ele>
   </trkpt>
   <trkpt lat="44.96660000000001" lon="6.736350000000001">
    <ele>2354.7900000000004</ele>
   </trkpt>
   <trkpt lat="44.96672" lon="6.7364500000000005">
    <ele>2358.1600000000003</ele>
   </trkpt>
   <trkpt lat="44.966840000000005" lon="6.73641">
    <ele>2360.38</ele>
   </trkpt>
   <trkpt lat="44.9669" lon="6.736370000000001">
    <ele>2361.54</ele>
   </trkpt>
   <trkpt lat="44.96697" lon="6.73636">
    <ele>2362.1800000000003</ele>
   </trkpt>
   <trkpt lat="44.96703" lon="6.736370000000001">
    <ele>2362.94</ele>
   </trkpt>
   <trkpt lat="44.96705" lon="6.736400000000001">
    <ele>2363.83</ele>
   </trkpt>
   <trkpt lat="44.96712" lon="6.736400000000001">
    <ele>2365.76</ele>
   </trkpt>
   <trkpt lat="44.96712" lon="6.736210000000001">
    <ele>2368.84</ele>
   </trkpt>
   <trkpt lat="44.96714" lon="6.73615">
    <ele>2370.3</ele>
   </trkpt>
   <trkpt lat="44.967150000000004" lon="6.736000000000001">
    <ele>2376.16</ele>
   </trkpt>
   <trkpt lat="44.967180000000006" lon="6.736000000000001">
    <ele>2376.16</ele>
   </trkpt>
   <trkpt lat="44.96725000000001" lon="6.73606">
    <ele>2381.8300000000004</ele>
   </trkpt>
   <trkpt lat="44.96732" lon="6.736070000000001">
    <ele>2381.8300000000004</ele>
   </trkpt>
   <trkpt lat="44.96734000000001" lon="6.7360500000000005">
    <ele>2383.68</ele>
   </trkpt>
   <trkpt lat="44.967400000000005" lon="6.735880000000001">
    <ele>2387.2500000000005</ele>
   </trkpt>
   <trkpt lat="44.96746" lon="6.735830000000001">
    <ele>2391.29</ele>
   </trkpt>
   <trkpt lat="44.96757" lon="6.735860000000001">
    <ele>2393.8900000000003</ele>
   </trkpt>
   <trkpt lat="44.967850000000006" lon="6.736180000000001">
    <ele>2403.3100000000004</ele>
   </trkpt>
   <trkpt lat="44.967980000000004" lon="6.736390000000001">
    <ele>2407.84</ele>
   </trkpt>
   <trkpt lat="44.96808" lon="6.736440000000001">
    <ele>2407.84</ele>
   </trkpt>
   <trkpt lat="44.96811" lon="6.736510000000001">
    <ele>2409.7700000000004</ele>
   </trkpt>
   <trkpt lat="44.968180000000004" lon="6.73655">
    <ele>2411.9</ele>
   </trkpt>
   <trkpt lat="44.968230000000005" lon="6.736630000000001">
    <ele>2414.32</ele>
   </trkpt>
   <trkpt lat="44.96846" lon="6.73678">
    <ele>2426.2000000000003</ele>
   </trkpt>
   <trkpt lat="44.96853" lon="6.736860000000001">
    <ele>2426.2000000000003</ele>
   </trkpt>
   <trkpt lat="44.968630000000005" lon="6.736770000000001">
    <ele>2427.59</ele>
   </trkpt>
   <trkpt lat="44.968720000000005" lon="6.736770000000001">
    <ele>2431.9</ele>
   </trkpt>
   <trkpt lat="44.96876" lon="6.736840000000001">
    <ele>2431.9</ele>
   </trkpt>
   <trkpt lat="44.96885" lon="6.73688">
    <ele>2437.13</ele>
   </trkpt>
   <trkpt lat="44.96895000000001" lon="6.73702">
    <ele>2437.13</ele>
   </trkpt>
   <trkpt lat="44.969010000000004" lon="6.73707">
    <ele>2443.95</ele>
   </trkpt>
   <trkpt lat="44.969080000000005" lon="6.737050000000001">
    <ele>2443.95</ele>
   </trkpt>
   <trkpt lat="44.96914" lon="6.7370600000000005">
    <ele>2443.95</ele>
   </trkpt>
   <trkpt lat="44.969440000000006" lon="6.737150000000001">
    <ele>2453.2700000000004</ele>
   </trkpt>
   <trkpt lat="44.96983" lon="6.737450000000001">
    <ele>2467.6</ele>
   </trkpt>
   <trkpt lat="44.969860000000004" lon="6.737470000000001">
    <ele>2470.18</ele>
   </trkpt>
   <trkpt lat="44.96997" lon="6.737590000000001">
    <ele>2475.0400000000004</ele>
   </trkpt>
   <trkpt lat="44.970150000000004" lon="6.7377">
    <ele>2480.35</ele>
   </trkpt>
   <trkpt lat="44.97023" lon="6.73772">
    <ele>2480.35</ele>
   </trkpt>
   <trkpt lat="44.97026" lon="6.73775">
    <ele>2486.46</ele>
   </trkpt>
   <trkpt lat="44.970290000000006" lon="6.737830000000001">
    <ele>2486.46</ele>
   </trkpt>
   <trkpt lat="44.97037" lon="6.737850000000001">
    <ele>2486.46</ele>
   </trkpt>
   <trkpt lat="44.970470000000006" lon="6.737970000000001">
    <ele>2491.7000000000003</ele>
   </trkpt>
   <trkpt lat="44.97055" lon="6.738">
    <ele>2492.95</ele>
   </trkpt>
   <trkpt lat="44.970650000000006" lon="6.738150000000001">
    <ele>2497.6900000000005</ele>
   </trkpt>
   <trkpt lat="44.970690000000005" lon="6.73824">
    <ele>2497.6900000000005</ele>
   </trkpt>
   <trkpt lat="44.97083000000001" lon="6.73843">
    <ele>2506.44</ele>
   </trkpt>
   <trkpt lat="44.97095" lon="6.73852">
    <ele>2508.65</ele>
   </trkpt>
   <trkpt lat="44.971000000000004" lon="6.738760000000001">
    <ele>2512.5200000000004</ele>
   </trkpt>
   <trkpt lat="44.97104" lon="6.738810000000001">
    <ele>2513.56</ele>
   </trkpt>
   <trkpt lat="44.97110000000001" lon="6.738830000000001">
    <ele>2515.86</ele>
   </trkpt>
   <trkpt lat="44.971250000000005" lon="6.7388200000000005">
    <ele>2519.54</ele>
   </trkpt>
   <trkpt lat="44.97149" lon="6.7388900000000005">
    <ele>2524.3700000000003</ele>
   </trkpt>
   <trkpt lat="44.97155" lon="6.73894">
    <ele>2525.88</ele>
   </trkpt>
   <trkpt lat="44.97169" lon="6.73901">
    <ele>2530.9000000000005</ele>
   </trkpt>
   <trkpt lat="44.97171" lon="6.73906">
    <ele>2532.96</ele>
   </trkpt>
   <trkpt lat="44.971740000000004" lon="6.73906">
    <ele>2532.96</ele>
   </trkpt>
   <trkpt lat="44.97177000000001" lon="6.739090000000001">
    <ele>2532.96</ele>
   </trkpt>
   <trkpt lat="44.971810000000005" lon="6.739090000000001">
    <ele>2539.82</ele>
   </trkpt>
   <trkpt lat="44.971830000000004" lon="6.739120000000001">
    <ele>2539.82</ele>
   </trkpt>
   <trkpt lat="44.971900000000005" lon="6.73915">
    <ele>2543.7700000000004</ele>
   </trkpt>
   <trkpt lat="44.97196" lon="6.739300000000001">
    <ele>2545.55</ele>
   </trkpt>
   <trkpt lat="44.97195000000001" lon="6.7394300000000005">
    <ele>2552.1200000000003</ele>
   </trkpt>
   <trkpt lat="44.971900000000005" lon="6.73948">
    <ele>2552.5200000000004</ele>
   </trkpt>
   <trkpt lat="44.971900000000005" lon="6.739540000000001">
    <ele>2562.59</ele>
   </trkpt>
   <trkpt lat="44.971920000000004" lon="6.7395700000000005">
    <ele>2562.76</ele>
   </trkpt>
   <trkpt lat="44.97198" lon="6.7395700000000005">
    <ele>2563.2400000000002</ele>
   </trkpt>
   <trkpt lat="44.971990000000005" lon="6.7396">
    <ele>2563.2400000000002</ele>
   </trkpt>
   <trkpt lat="44.97193" lon="6.73969">
    <ele>2563.99</ele>
   </trkpt>
   <trkpt lat="44.97196" lon="6.73981">
    <ele>2564.9900000000002</ele>
   </trkpt>
   <trkpt lat="44.97209" lon="6.739870000000001">
    <ele>2567.36</ele>
   </trkpt>
   <trkpt lat="44.972210000000004" lon="6.739850000000001">
    <ele>2568.59</ele>
   </trkpt>
   <trkpt lat="44.97233000000001" lon="6.73988">
    <ele>2572.87</ele>
   </trkpt>
   <trkpt lat="44.9724" lon="6.73983">
    <ele>2572.87</ele>
   </trkpt>
   <trkpt lat="44.97254" lon="6.73988">
    <ele>2579.2200000000003</ele>
   </trkpt>
   <trkpt lat="44.972680000000004" lon="6.7399000000000004">
    <ele>2586.7</ele>
   </trkpt>
   <trkpt lat="44.97274" lon="6.73988">
    <ele>2587.0</ele>
   </trkpt>
   <trkpt lat="44.97285" lon="6.739910000000001">
    <ele>2596.4</ele>
   </trkpt>
   <trkpt lat="44.97296" lon="6.73981">
    <ele>2599.4700000000003</ele>
   </trkpt>
   <trkpt lat="44.97298000000001" lon="6.739820000000001">
    <ele>2599.4700000000003</ele>
   </trkpt>
   <trkpt lat="44.97303" lon="6.74002">
    <ele>2603.65</ele>
   </trkpt>
   <trkpt lat="44.97312" lon="6.739920000000001">
    <ele>2608.7900000000004</ele>
   </trkpt>
   <trkpt lat="44.97314" lon="6.739920000000001">
    <ele>2608.7900000000004</ele>
   </trkpt>
   <trkpt lat="44.97314" lon="6.740030000000001">
    <ele>2611.1700000000005</ele>
   </trkpt>
   <trkpt lat="44.973220000000005" lon="6.7399700000000005">
    <ele>2613.41</ele>
   </trkpt>
   <trkpt lat="44.973310000000005" lon="6.739870000000001">
    <ele>2615.5600000000004</ele>
   </trkpt>
   <trkpt lat="44.973310000000005" lon="6.7400400000000005">
    <ele>2619.6800000000003</ele>
   </trkpt>
   <trkpt lat="44.973380000000006" lon="6.74">
    <ele>2619.6800000000003</ele>
   </trkpt>
   <trkpt lat="44.973400000000005" lon="6.740030000000001">
    <ele>2619.6800000000003</ele>
   </trkpt>
   <trkpt lat="44.97335" lon="6.74035">
    <ele>2626.0600000000004</ele>
   </trkpt>
   <trkpt lat="44.973180000000006" lon="6.740530000000001">
    <ele>2628.4700000000003</ele>
   </trkpt>
   <trkpt lat="44.9731" lon="6.740690000000001">
    <ele>2630.79</ele>
   </trkpt>
   <trkpt lat="44.972820000000006" lon="6.741460000000001">
    <ele>2649.15</ele>
   </trkpt>
   <trkpt lat="44.97279" lon="6.741490000000001">
    <ele>2649.15</ele>
   </trkpt>
   <trkpt lat="44.97276" lon="6.74164">
    <ele>2654.6900000000005</ele>
   </trkpt>
   <trkpt lat="44.972640000000006" lon="6.7418000000000005">
    <ele>2656.25</ele>
   </trkpt>
   <trkpt lat="44.97256" lon="6.741960000000001">
    <ele>2659.26</ele>
   </trkpt>
   <trkpt lat="44.97247" lon="6.74202">
    <ele>2660.8300000000004</ele>
   </trkpt>
   <trkpt lat="44.972440000000006" lon="6.7420800000000005">
    <ele>2660.8300000000004</ele>
   </trkpt>
   <trkpt lat="44.972440000000006" lon="6.74218">
    <ele>2664.09</ele>
   </trkpt>
   <trkpt lat="44.97238" lon="6.7422200000000005">
    <ele>2664.09</ele>
   </trkpt>
   <trkpt lat="44.972350000000006" lon="6.742290000000001">
    <ele>2664.09</ele>
   </trkpt>
   <trkpt lat="44.97249" lon="6.7424800000000005">
    <ele>2667.6000000000004</ele>
   </trkpt>
   <trkpt lat="44.972390000000004" lon="6.7424800000000005">
    <ele>2668.2900000000004</ele>
   </trkpt>
   <trkpt lat="44.97225" lon="6.74253">
    <ele>2670.7400000000002</ele>
   </trkpt>
   <trkpt lat="44.971970000000006" lon="6.7427">
    <ele>2676.8500000000004</ele>
   </trkpt>
   <trkpt lat="44.97191" lon="6.742920000000001">
    <ele>2680.82</ele>
   </trkpt>
   <trkpt lat="44.97187" lon="6.742920000000001">
    <ele>2680.82</ele>
   </trkpt>
   <trkpt lat="44.971810000000005" lon="6.743320000000001">
    <ele>2686.09</ele>
   </trkpt>
   <trkpt lat="44.97178" lon="6.74338">
    <ele>2686.09</ele>
   </trkpt>
   <trkpt lat="44.971740000000004" lon="6.74338">
    <ele>2689.11</ele>
   </trkpt>
   <trkpt lat="44.97158" lon="6.74312">
    <ele>2692.9200000000005</ele>
   </trkpt>
   <trkpt lat="44.971540000000005" lon="6.743110000000001">
    <ele>2692.9200000000005</ele>
   </trkpt>
   <trkpt lat="44.97151" lon="6.743150000000001">
    <ele>2696.8500000000004</ele>
   </trkpt>
   <trkpt lat="44.971520000000005" lon="6.743340000000001">
    <ele>2696.8500000000004</ele>
   </trkpt>
   <trkpt lat="44.97149" lon="6.74378">
    <ele>2704.53</ele>
   </trkpt>
   <trkpt lat="44.971430000000005" lon="6.744040000000001">
    <ele>2707.2200000000003</ele>
   </trkpt>
   <trkpt lat="44.97139000000001" lon="6.74453">
    <ele>2717.7900000000004</ele>
   </trkpt>
   <trkpt lat="44.97135" lon="6.744580000000001">
    <ele>2717.7900000000004</ele>
   </trkpt>
   <trkpt lat="44.971320000000006" lon="6.74455">
    <ele>2718.82</ele>
   </trkpt>
   <trkpt lat="44.971270000000004" lon="6.7443800000000005">
    <ele>2720.72</ele>
   </trkpt>
   <trkpt lat="44.9712" lon="6.74422">
    <ele>2722.4500000000003</ele>
   </trkpt>
   <trkpt lat="44.97111" lon="6.7441">
    <ele>2725.7000000000003</ele>
   </trkpt>
   <trkpt lat="44.97106" lon="6.7441">
    <ele>2726.55</ele>
   </trkpt>
   <trkpt lat="44.97082" lon="6.744250000000001">
    <ele>2734.7900000000004</ele>
   </trkpt>
   <trkpt lat="44.9707" lon="6.74436">
    <ele>2735.8300000000004</ele>
   </trkpt>
   <trkpt lat="44.9701" lon="6.745150000000001">
    <ele>2756.45</ele>
   </trkpt>
   <trkpt lat="44.970000000000006" lon="6.74521">
    <ele>2759.82</ele>
   </trkpt>
   <trkpt lat="44.969950000000004" lon="6.745290000000001">
    <ele>2759.82</ele>
   </trkpt>
   <trkpt lat="44.969910000000006" lon="6.745340000000001">
    <ele>2765.08</ele>
   </trkpt>
   <trkpt lat="44.96981" lon="6.74539">
    <ele>2766.6000000000004</ele>
   </trkpt>
   <trkpt lat="44.969800000000006" lon="6.7454600000000005">
    <ele>2766.6000000000004</ele>
   </trkpt>
   <trkpt lat="44.96978000000001" lon="6.745470000000001">
    <ele>2767.4100000000003</ele>
   </trkpt>
   <trkpt lat="44.969770000000004" lon="6.74551">
    <ele>2767.4100000000003</ele>
   </trkpt>
   <trkpt lat="44.969730000000006" lon="6.745500000000001">
    <ele>2769.1600000000003</ele>
   </trkpt>
   <trkpt lat="44.969710000000006" lon="6.74556">
    <ele>2769.1600000000003</ele>
   </trkpt>
   <trkpt lat="44.96963" lon="6.7456000000000005">
    <ele>2771.01</ele>
   </trkpt>
   <trkpt lat="44.96961" lon="6.74568">
    <ele>2771.01</ele>
   </trkpt>
   <trkpt lat="44.96958" lon="6.74572">
    <ele>2774.86</ele>
   </trkpt>
   <trkpt lat="44.96954" lon="6.74572">
    <ele>2774.86</ele>
   </trkpt>
   <trkpt lat="44.96952" lon="6.74579">
    <ele>2774.86</ele>
   </trkpt>
   <trkpt lat="44.969440000000006" lon="6.74582">
    <ele>2778.53</ele>
   </trkpt>
   <trkpt lat="44.9694" lon="6.745870000000001">
    <ele>2778.53</ele>
   </trkpt>
   <trkpt lat="44.969530000000006" lon="6.746020000000001">
    <ele>2781.42</ele>
   </trkpt>
   <trkpt lat="44.96961" lon="6.74619">
    <ele>2783.94</ele>
   </trkpt>
   <trkpt lat="44.96960000000001" lon="6.74624">
    <ele>2783.94</ele>
   </trkpt>
   <trkpt lat="44.96958" lon="6.746250000000001">
    <ele>2783.94</ele>
   </trkpt>
   <trkpt lat="44.96949" lon="6.746220000000001">
    <ele>2788.4100000000003</ele>
   </trkpt>
   <trkpt lat="44.969280000000005" lon="6.7462100000000005">
    <ele>2792.4900000000002</ele>
   </trkpt>
   <trkpt lat="44.96913000000001" lon="6.746220000000001">
    <ele>2793.25</ele>
   </trkpt>
   <trkpt lat="44.968880000000006" lon="6.74629">
    <ele>2808.71</ele>
   </trkpt>
   <trkpt lat="44.968790000000006" lon="6.74631">
    <ele>2808.71</ele>
   </trkpt>
   <trkpt lat="44.96864" lon="6.74629">
    <ele>2808.71</ele>
   </trkpt>
   <trkpt lat="44.96853" lon="6.74631">
    <ele>2814.83</ele>
   </trkpt>
   <trkpt lat="44.96839000000001" lon="6.74631">
    <ele>2814.83</ele>
   </trkpt>
   <trkpt lat="44.96811" lon="6.7463500000000005">
    <ele>2816.8700000000003</ele>
   </trkpt>
   <trkpt lat="44.96811" lon="6.7464200000000005">
    <ele>2817.6200000000003</ele>
   </trkpt>
   <trkpt lat="44.96828000000001" lon="6.746580000000001">
    <ele>2819.42</ele>
   </trkpt>
   <trkpt lat="44.96846" lon="6.746860000000001">
    <ele>2825.4900000000002</ele>
   </trkpt>
   <trkpt lat="44.968540000000004" lon="6.74711">
    <ele>2827.4700000000003</ele>
   </trkpt>
   <trkpt lat="44.96849" lon="6.7472">
    <ele>2829.6</ele>
   </trkpt>
   <trkpt lat="44.968430000000005" lon="6.74718">
    <ele>2831.8700000000003</ele>
   </trkpt>
   <trkpt lat="44.968270000000004" lon="6.747170000000001">
    <ele>2837.12</ele>
   </trkpt>
   <trkpt lat="44.968210000000006" lon="6.747140000000001">
    <ele>2838.02</ele>
   </trkpt>
   <trkpt lat="44.967870000000005" lon="6.7472">
    <ele>2845.3100000000004</ele>
   </trkpt>
   <trkpt lat="44.967760000000006" lon="6.74727">
    <ele>2850.89</ele>
   </trkpt>
   <trkpt lat="44.967620000000004" lon="6.74725">
    <ele>2850.89</ele>
   </trkpt>
   <trkpt lat="44.96759" lon="6.747260000000001">
    <ele>2850.89</ele>
   </trkpt>
   <trkpt lat="44.96761" lon="6.747330000000001">
    <ele>2853.25</ele>
   </trkpt>
   <trkpt lat="44.96768" lon="6.747370000000001">
    <ele>2855.53</ele>
   </trkpt>
   <trkpt lat="44.96788" lon="6.747610000000001">
    <ele>2859.86</ele>
   </trkpt>
   <trkpt lat="44.96793" lon="6.7477100000000005">
    <ele>2865.4300000000003</ele>
   </trkpt>
   <trkpt lat="44.96806" lon="6.74821">
    <ele>2865.57</ele>
   </trkpt>
   <trkpt lat="44.968160000000005" lon="6.748740000000001">
    <ele>2874.2599999999998</ele>
   </trkpt>
   <trkpt lat="44.96817" lon="6.748880000000001">
    <ele>2874.2599999999998</ele>
   </trkpt>
   <trkpt lat="44.96826" lon="6.74929">
    <ele>2880.76</ele>
   </trkpt>
   <trkpt lat="44.968340000000005" lon="6.749580000000001">
    <ele>2887.3900000000003</ele>
   </trkpt>
   <trkpt lat="44.968540000000004" lon="6.74995">
    <ele>2894.63</ele>
   </trkpt>
   <trkpt lat="44.96855" lon="6.74999">
    <ele>2894.63</ele>
   </trkpt>
   <trkpt lat="44.96853" lon="6.7500100000000005">
    <ele>2894.63</ele>
   </trkpt>
   <trkpt lat="44.968160000000005" lon="6.749740000000001">
    <ele>2905.57</ele>
   </trkpt>
   <trkpt lat="44.96792000000001" lon="6.7495">
    <ele>2912.11</ele>
   </trkpt>
   <trkpt lat="44.967490000000005" lon="6.74891">
    <ele>2923.65</ele>
   </trkpt>
   <trkpt lat="44.967420000000004" lon="6.74884">
    <ele>2929.32</ele>
   </trkpt>
   <trkpt lat="44.967040000000004" lon="6.748640000000001">
    <ele>2953.5400000000004</ele>
   </trkpt>
   <trkpt lat="44.96692" lon="6.748620000000001">
    <ele>2953.7200000000003</ele>
   </trkpt>
   <trkpt lat="44.966910000000006" lon="6.748660000000001">
    <ele>2953.7200000000003</ele>
   </trkpt>
   <trkpt lat="44.96696" lon="6.74877">
    <ele>2954.5600000000004</ele>
   </trkpt>
   <trkpt lat="44.96701" lon="6.748830000000001">
    <ele>2955.38</ele>
   </trkpt>
   <trkpt lat="44.9671" lon="6.749020000000001">
    <ele>2956.02</ele>
   </trkpt>
   <trkpt lat="44.96717" lon="6.749110000000001">
    <ele>2956.49</ele>
   </trkpt>
   <trkpt lat="44.96728" lon="6.749320000000001">
    <ele>2956.08</ele>
   </trkpt>
   <trkpt lat="44.9675" lon="6.75037">
    <ele>2970.94</ele>
   </trkpt>
   <trkpt lat="44.967800000000004" lon="6.7511600000000005">
    <ele>2980.56</ele>
   </trkpt>
   <trkpt lat="44.967800000000004" lon="6.75124">
    <ele>2982.1400000000003</ele>
   </trkpt>
   <trkpt lat="44.967780000000005" lon="6.751250000000001">
    <ele>2982.1400000000003</ele>
   </trkpt>
   <trkpt lat="44.96773" lon="6.751150000000001">
    <ele>2983.6600000000003</ele>
   </trkpt>
   <trkpt lat="44.96761" lon="6.751040000000001">
    <ele>2986.66</ele>
   </trkpt>
   <trkpt lat="44.96732" lon="6.75086">
    <ele>2991.9100000000003</ele>
   </trkpt>
   <trkpt lat="44.96712" lon="6.750640000000001">
    <ele>2997.03</ele>
   </trkpt>
   <trkpt lat="44.967000000000006" lon="6.750400000000001">
    <ele>3002.8</ele>
   </trkpt>
   <trkpt lat="44.96689000000001" lon="6.75025">
    <ele>3002.8</ele>
   </trkpt>
   <trkpt lat="44.966800000000006" lon="6.75016">
    <ele>3007.2500000000005</ele>
   </trkpt>
   <trkpt lat="44.966350000000006" lon="6.7499">
    <ele>3015.17</ele>
   </trkpt>
   <trkpt lat="44.965920000000004" lon="6.74971">
    <ele>3024.2500000000005</ele>
   </trkpt>
   <trkpt lat="44.965740000000004" lon="6.749600000000001">
    <ele>3028.71</ele>
   </trkpt>
   <trkpt lat="44.96544" lon="6.749370000000001">
    <ele>3035.6500000000005</ele>
   </trkpt>
   <trkpt lat="44.96511" lon="6.749070000000001">
    <ele>3044.1600000000003</ele>
   </trkpt>
   <trkpt lat="44.96490000000001" lon="6.74903">
    <ele>3049.5400000000004</ele>
   </trkpt>
   <trkpt lat="44.96473" lon="6.749200000000001">
    <ele>3053.5400000000004</ele>
   </trkpt>
   <trkpt lat="44.964740000000006" lon="6.7492600000000005">
    <ele>3055.6</ele>
   </trkpt>
   <trkpt lat="44.964830000000006" lon="6.749280000000001">
    <ele>3057.8100000000004</ele>
   </trkpt>
   <trkpt lat="44.964890000000004" lon="6.749320000000001">
    <ele>3060.17</ele>
   </trkpt>
   <trkpt lat="44.964960000000005" lon="6.74945">
    <ele>3060.17</ele>
   </trkpt>
   <trkpt lat="44.96504" lon="6.749510000000001">
    <ele>3067.4400000000005</ele>
   </trkpt>
   <trkpt lat="44.96511" lon="6.7496100000000006">
    <ele>3067.4400000000005</ele>
   </trkpt>
   <trkpt lat="44.96531" lon="6.750120000000001">
    <ele>3075.78</ele>
   </trkpt>
   <trkpt lat="44.96529" lon="6.750140000000001">
    <ele>3075.9</ele>
   </trkpt>
   <trkpt lat="44.96504" lon="6.7499400000000005">
    <ele>3079.63</ele>
   </trkpt>
   <trkpt lat="44.964940000000006" lon="6.749890000000001">
    <ele>3081.09</ele>
   </trkpt>
   <trkpt lat="44.96493" lon="6.7499">
    <ele>3081.09</ele>
   </trkpt>
   <trkpt lat="44.965090000000004" lon="6.750190000000001">
    <ele>3085.4500000000003</ele>
   </trkpt>
   <trkpt lat="44.96515" lon="6.7503400000000005">
    <ele>3088.2400000000002</ele>
   </trkpt>
   <trkpt lat="44.96515" lon="6.750380000000001">
    <ele>3088.2400000000002</ele>
   </trkpt>
   <trkpt lat="44.964980000000004" lon="6.750240000000001">
    <ele>3092.78</ele>
   </trkpt>
   <trkpt lat="44.96490000000001" lon="6.7502200000000006">
    <ele>3092.78</ele>
   </trkpt>
   <trkpt lat="44.964920000000006" lon="6.75032">
    <ele>3094.2100000000005</ele>
   </trkpt>
   <trkpt lat="44.96490000000001" lon="6.750490000000001">
    <ele>3095.5600000000004</ele>
   </trkpt>
   <trkpt lat="44.964940000000006" lon="6.750570000000001">
    <ele>3096.3</ele>
   </trkpt>
   <trkpt lat="44.96491" lon="6.750660000000001">
    <ele>3100.2500000000005</ele>
   </trkpt>
   <trkpt lat="44.964870000000005" lon="6.750710000000001">
    <ele>3100.2500000000005</ele>
   </trkpt>
   <trkpt lat="44.96491" lon="6.750800000000001">
    <ele>3100.69</ele>
   </trkpt>
   <trkpt lat="44.96491" lon="6.750870000000001">
    <ele>3100.69</ele>
   </trkpt>
   <trkpt lat="44.96448" lon="6.75131">
    <ele>3098.82</ele>
   </trkpt>
   <trkpt lat="44.96491" lon="6.750870000000001">
    <ele>3100.2200000000003</ele>
   </trkpt>
   <trkpt lat="44.96491" lon="6.750800000000001">
    <ele>3100.42</ele>
   </trkpt>
   <trkpt lat="44.964870000000005" lon="6.750710000000001">
    <ele>3100.69</ele>
   </trkpt>
   <trkpt lat="44.96491" lon="6.750660000000001">
    <ele>3100.69</ele>
   </trkpt>
   <trkpt lat="44.964940000000006" lon="6.750570000000001">
    <ele>3100.2500000000005</ele>
   </trkpt>
   <trkpt lat="44.96490000000001" lon="6.750490000000001">
    <ele>3100.2500000000005</ele>
   </trkpt>
   <trkpt lat="44.964920000000006" lon="6.75032">
    <ele>3096.3</ele>
   </trkpt>
   <trkpt lat="44.96490000000001" lon="6.7502200000000006">
    <ele>3095.5600000000004</ele>
   </trkpt>
   <trkpt lat="44.964980000000004" lon="6.750240000000001">
    <ele>3094.2100000000005</ele>
   </trkpt>
   <trkpt lat="44.96515" lon="6.750380000000001">
    <ele>3092.78</ele>
   </trkpt>
   <trkpt lat="44.96515" lon="6.7503400000000005">
    <ele>3088.9700000000003</ele>
   </trkpt>
   <trkpt lat="44.965090000000004" lon="6.750190000000001">
    <ele>3088.2400000000002</ele>
   </trkpt>
   <trkpt lat="44.96493" lon="6.7499">
    <ele>3083.88</ele>
   </trkpt>
   <trkpt lat="44.964940000000006" lon="6.749890000000001">
    <ele>3083.88</ele>
   </trkpt>
   <trkpt lat="44.96504" lon="6.7499400000000005">
    <ele>3081.09</ele>
   </trkpt>
   <trkpt lat="44.96529" lon="6.750140000000001">
    <ele>3076.3700000000003</ele>
   </trkpt>
   <trkpt lat="44.96531" lon="6.750120000000001">
    <ele>3076.3700000000003</ele>
   </trkpt>
   <trkpt lat="44.96519000000001" lon="6.749810000000001">
    <ele>3075.61</ele>
   </trkpt>
   <trkpt lat="44.965230000000005" lon="6.7498000000000005">
    <ele>3075.61</ele>
   </trkpt>
   <trkpt lat="44.9654" lon="6.749840000000001">
    <ele>3063.32</ele>
   </trkpt>
   <trkpt lat="44.96576" lon="6.749790000000001">
    <ele>3041.37</ele>
   </trkpt>
   <trkpt lat="44.966120000000004" lon="6.7498000000000005">
    <ele>3022.21</ele>
   </trkpt>
   <trkpt lat="44.966350000000006" lon="6.7499">
    <ele>3017.79</ele>
   </trkpt>
   <trkpt lat="44.966800000000006" lon="6.75016">
    <ele>3009.0000000000005</ele>
   </trkpt>
   <trkpt lat="44.96689000000001" lon="6.75025">
    <ele>3007.2500000000005</ele>
   </trkpt>
   <trkpt lat="44.967000000000006" lon="6.750400000000001">
    <ele>3002.8</ele>
   </trkpt>
   <trkpt lat="44.96712" lon="6.750640000000001">
    <ele>3002.8</ele>
   </trkpt>
   <trkpt lat="44.96732" lon="6.75086">
    <ele>2997.03</ele>
   </trkpt>
   <trkpt lat="44.96761" lon="6.751040000000001">
    <ele>2989.2000000000003</ele>
   </trkpt>
   <trkpt lat="44.96773" lon="6.751150000000001">
    <ele>2986.66</ele>
   </trkpt>
   <trkpt lat="44.967780000000005" lon="6.751250000000001">
    <ele>2985.8900000000003</ele>
   </trkpt>
   <trkpt lat="44.967800000000004" lon="6.75124">
    <ele>2985.8900000000003</ele>
   </trkpt>
   <trkpt lat="44.967800000000004" lon="6.7511600000000005">
    <ele>2983.6600000000003</ele>
   </trkpt>
   <trkpt lat="44.9675" lon="6.75037">
    <ele>2970.94</ele>
   </trkpt>
   <trkpt lat="44.96728" lon="6.749320000000001">
    <ele>2957.3300000000004</ele>
   </trkpt>
   <trkpt lat="44.96717" lon="6.749110000000001">
    <ele>2956.08</ele>
   </trkpt>
   <trkpt lat="44.9671" lon="6.749020000000001">
    <ele>2956.4100000000003</ele>
   </trkpt>
   <trkpt lat="44.96701" lon="6.748830000000001">
    <ele>2956.02</ele>
   </trkpt>
   <trkpt lat="44.96696" lon="6.74877">
    <ele>2955.7300000000005</ele>
   </trkpt>
   <trkpt lat="44.966910000000006" lon="6.748660000000001">
    <ele>2955.38</ele>
   </trkpt>
   <trkpt lat="44.96692" lon="6.748620000000001">
    <ele>2954.5600000000004</ele>
   </trkpt>
   <trkpt lat="44.967040000000004" lon="6.748640000000001">
    <ele>2953.91</ele>
   </trkpt>
   <trkpt lat="44.967420000000004" lon="6.74884">
    <ele>2929.32</ele>
   </trkpt>
   <trkpt lat="44.967490000000005" lon="6.74891">
    <ele>2929.32</ele>
   </trkpt>
   <trkpt lat="44.96792000000001" lon="6.7495">
    <ele>2915.4500000000003</ele>
   </trkpt>
   <trkpt lat="44.968160000000005" lon="6.749740000000001">
    <ele>2908.57</ele>
   </trkpt>
   <trkpt lat="44.96853" lon="6.7500100000000005">
    <ele>2899.96</ele>
   </trkpt>
   <trkpt lat="44.96855" lon="6.74999">
    <ele>2897.7400000000002</ele>
   </trkpt>
   <trkpt lat="44.968540000000004" lon="6.74995">
    <ele>2897.7400000000002</ele>
   </trkpt>
   <trkpt lat="44.968340000000005" lon="6.749580000000001">
    <ele>2890.34</ele>
   </trkpt>
   <trkpt lat="44.96826" lon="6.74929">
    <ele>2884.67</ele>
   </trkpt>
   <trkpt lat="44.96817" lon="6.748880000000001">
    <ele>2877.1000000000004</ele>
   </trkpt>
   <trkpt lat="44.968160000000005" lon="6.748740000000001">
    <ele>2877.1000000000004</ele>
   </trkpt>
   <trkpt lat="44.96806" lon="6.74821">
    <ele>2868.98</ele>
   </trkpt>
   <trkpt lat="44.96793" lon="6.7477100000000005">
    <ele>2865.2400000000002</ele>
   </trkpt>
   <trkpt lat="44.96788" lon="6.747610000000001">
    <ele>2865.32</ele>
   </trkpt>
   <trkpt lat="44.96768" lon="6.747370000000001">
    <ele>2859.86</ele>
   </trkpt>
   <trkpt lat="44.96761" lon="6.747330000000001">
    <ele>2855.53</ele>
   </trkpt>
   <trkpt lat="44.96759" lon="6.747260000000001">
    <ele>2855.53</ele>
   </trkpt>
   <trkpt lat="44.967620000000004" lon="6.74725">
    <ele>2855.53</ele>
   </trkpt>
   <trkpt lat="44.967760000000006" lon="6.74727">
    <ele>2850.89</ele>
   </trkpt>
   <trkpt lat="44.967870000000005" lon="6.7472">
    <ele>2850.89</ele>
   </trkpt>
   <trkpt lat="44.968210000000006" lon="6.747140000000001">
    <ele>2842.0400000000004</ele>
   </trkpt>
   <trkpt lat="44.968270000000004" lon="6.747170000000001">
    <ele>2842.0400000000004</ele>
   </trkpt>
   <trkpt lat="44.968430000000005" lon="6.74718">
    <ele>2837.12</ele>
   </trkpt>
   <trkpt lat="44.96849" lon="6.7472">
    <ele>2835.42</ele>
   </trkpt>
   <trkpt lat="44.968540000000004" lon="6.74711">
    <ele>2831.8700000000003</ele>
   </trkpt>
   <trkpt lat="44.96846" lon="6.746860000000001">
    <ele>2827.4700000000003</ele>
   </trkpt>
   <trkpt lat="44.96828000000001" lon="6.746580000000001">
    <ele>2820.6600000000003</ele>
   </trkpt>
   <trkpt lat="44.96838" lon="6.74652">
    <ele>2819.1800000000003</ele>
   </trkpt>
   <trkpt lat="44.96842" lon="6.74643">
    <ele>2816.88</ele>
   </trkpt>
   <trkpt lat="44.96853" lon="6.74631">
    <ele>2816.1600000000003</ele>
   </trkpt>
   <trkpt lat="44.96864" lon="6.74629">
    <ele>2814.83</ele>
   </trkpt>
   <trkpt lat="44.968790000000006" lon="6.74631">
    <ele>2808.71</ele>
   </trkpt>
   <trkpt lat="44.968880000000006" lon="6.74629">
    <ele>2808.71</ele>
   </trkpt>
   <trkpt lat="44.96913000000001" lon="6.746220000000001">
    <ele>2796.8700000000003</ele>
   </trkpt>
   <trkpt lat="44.969280000000005" lon="6.7462100000000005">
    <ele>2796.8700000000003</ele>
   </trkpt>
   <trkpt lat="44.96949" lon="6.746220000000001">
    <ele>2790.9100000000003</ele>
   </trkpt>
   <trkpt lat="44.96958" lon="6.746250000000001">
    <ele>2790.9100000000003</ele>
   </trkpt>
   <trkpt lat="44.96960000000001" lon="6.74624">
    <ele>2788.4100000000003</ele>
   </trkpt>
   <trkpt lat="44.96961" lon="6.74619">
    <ele>2788.4100000000003</ele>
   </trkpt>
   <trkpt lat="44.969530000000006" lon="6.746020000000001">
    <ele>2783.94</ele>
   </trkpt>
   <trkpt lat="44.9694" lon="6.745870000000001">
    <ele>2781.42</ele>
   </trkpt>
   <trkpt lat="44.969440000000006" lon="6.74582">
    <ele>2781.42</ele>
   </trkpt>
   <trkpt lat="44.96952" lon="6.74579">
    <ele>2778.53</ele>
   </trkpt>
   <trkpt lat="44.96954" lon="6.74572">
    <ele>2778.53</ele>
   </trkpt>
   <trkpt lat="44.96958" lon="6.74572">
    <ele>2778.53</ele>
   </trkpt>
   <trkpt lat="44.96961" lon="6.74568">
    <ele>2774.86</ele>
   </trkpt>
   <trkpt lat="44.96963" lon="6.7456000000000005">
    <ele>2774.86</ele>
   </trkpt>
   <trkpt lat="44.969710000000006" lon="6.74556">
    <ele>2774.86</ele>
   </trkpt>
   <trkpt lat="44.969730000000006" lon="6.745500000000001">
    <ele>2771.01</ele>
   </trkpt>
   <trkpt lat="44.969770000000004" lon="6.74551">
    <ele>2771.01</ele>
   </trkpt>
   <trkpt lat="44.96978000000001" lon="6.745470000000001">
    <ele>2771.01</ele>
   </trkpt>
   <trkpt lat="44.969800000000006" lon="6.7454600000000005">
    <ele>2771.01</ele>
   </trkpt>
   <trkpt lat="44.96981" lon="6.74539">
    <ele>2769.1600000000003</ele>
   </trkpt>
   <trkpt lat="44.969910000000006" lon="6.745340000000001">
    <ele>2767.4100000000003</ele>
   </trkpt>
   <trkpt lat="44.969950000000004" lon="6.745290000000001">
    <ele>2766.6000000000004</ele>
   </trkpt>
   <trkpt lat="44.970000000000006" lon="6.74521">
    <ele>2765.08</ele>
   </trkpt>
   <trkpt lat="44.9701" lon="6.745150000000001">
    <ele>2759.82</ele>
   </trkpt>
   <trkpt lat="44.9707" lon="6.74436">
    <ele>2741.09</ele>
   </trkpt>
   <trkpt lat="44.97082" lon="6.744250000000001">
    <ele>2735.8300000000004</ele>
   </trkpt>
   <trkpt lat="44.97106" lon="6.7441">
    <ele>2729.3100000000004</ele>
   </trkpt>
   <trkpt lat="44.971270000000004" lon="6.743480000000001">
    <ele>2718.29</ele>
   </trkpt>
   <trkpt lat="44.97129" lon="6.74333">
    <ele>2711.55</ele>
   </trkpt>
   <trkpt lat="44.971340000000005" lon="6.7431600000000005">
    <ele>2703.44</ele>
   </trkpt>
   <trkpt lat="44.97146" lon="6.742970000000001">
    <ele>2703.44</ele>
   </trkpt>
   <trkpt lat="44.971970000000006" lon="6.7427">
    <ele>2679.8700000000003</ele>
   </trkpt>
   <trkpt lat="44.97225" lon="6.74253">
    <ele>2672.66</ele>
   </trkpt>
   <trkpt lat="44.972390000000004" lon="6.7424800000000005">
    <ele>2670.7400000000002</ele>
   </trkpt>
   <trkpt lat="44.97249" lon="6.7424800000000005">
    <ele>2668.2900000000004</ele>
   </trkpt>
   <trkpt lat="44.973090000000006" lon="6.741890000000001">
    <ele>2660.1800000000003</ele>
   </trkpt>
   <trkpt lat="44.97307000000001" lon="6.741860000000001">
    <ele>2659.79</ele>
   </trkpt>
   <trkpt lat="44.97308" lon="6.741770000000001">
    <ele>2659.44</ele>
   </trkpt>
   <trkpt lat="44.973060000000004" lon="6.741680000000001">
    <ele>2659.07</ele>
   </trkpt>
   <trkpt lat="44.972950000000004" lon="6.741650000000001">
    <ele>2657.8</ele>
   </trkpt>
   <trkpt lat="44.97281" lon="6.741680000000001">
    <ele>2655.82</ele>
   </trkpt>
   <trkpt lat="44.97276" lon="6.74164">
    <ele>2655.82</ele>
   </trkpt>
   <trkpt lat="44.97279" lon="6.741490000000001">
    <ele>2654.6900000000005</ele>
   </trkpt>
   <trkpt lat="44.972820000000006" lon="6.741460000000001">
    <ele>2654.6900000000005</ele>
   </trkpt>
   <trkpt lat="44.9731" lon="6.740690000000001">
    <ele>2634.31</ele>
   </trkpt>
   <trkpt lat="44.973180000000006" lon="6.740530000000001">
    <ele>2630.79</ele>
   </trkpt>
   <trkpt lat="44.97335" lon="6.74035">
    <ele>2628.28</ele>
   </trkpt>
   <trkpt lat="44.973400000000005" lon="6.740030000000001">
    <ele>2624.03</ele>
   </trkpt>
   <trkpt lat="44.973380000000006" lon="6.74">
    <ele>2624.03</ele>
   </trkpt>
   <trkpt lat="44.973310000000005" lon="6.7400400000000005">
    <ele>2624.03</ele>
   </trkpt>
   <trkpt lat="44.973310000000005" lon="6.739870000000001">
    <ele>2619.6800000000003</ele>
   </trkpt>
   <trkpt lat="44.973220000000005" lon="6.7399700000000005">
    <ele>2615.5600000000004</ele>
   </trkpt>
   <trkpt lat="44.97314" lon="6.740030000000001">
    <ele>2613.41</ele>
   </trkpt>
   <trkpt lat="44.97314" lon="6.739920000000001">
    <ele>2611.1700000000005</ele>
   </trkpt>
   <trkpt lat="44.97312" lon="6.739920000000001">
    <ele>2611.1700000000005</ele>
   </trkpt>
   <trkpt lat="44.97303" lon="6.74002">
    <ele>2608.7900000000004</ele>
   </trkpt>
   <trkpt lat="44.97298000000001" lon="6.739820000000001">
    <ele>2603.65</ele>
   </trkpt>
   <trkpt lat="44.97296" lon="6.73981">
    <ele>2603.65</ele>
   </trkpt>
   <trkpt lat="44.97281" lon="6.73993">
    <ele>2599.4700000000003</ele>
   </trkpt>
   <trkpt lat="44.97265" lon="6.739890000000001">
    <ele>2587.0</ele>
   </trkpt>
   <trkpt lat="44.97254" lon="6.73988">
    <ele>2586.7</ele>
   </trkpt>
   <trkpt lat="44.9724" lon="6.73983">
    <ele>2579.2200000000003</ele>
   </trkpt>
   <trkpt lat="44.97233000000001" lon="6.73988">
    <ele>2579.2200000000003</ele>
   </trkpt>
   <trkpt lat="44.972210000000004" lon="6.739850000000001">
    <ele>2572.87</ele>
   </trkpt>
   <trkpt lat="44.97209" lon="6.739870000000001">
    <ele>2568.59</ele>
   </trkpt>
   <trkpt lat="44.97196" lon="6.73981">
    <ele>2567.36</ele>
   </trkpt>
   <trkpt lat="44.97193" lon="6.73969">
    <ele>2564.9900000000002</ele>
   </trkpt>
   <trkpt lat="44.971990000000005" lon="6.7396">
    <ele>2564.4600000000005</ele>
   </trkpt>
   <trkpt lat="44.97198" lon="6.7395700000000005">
    <ele>2564.4600000000005</ele>
   </trkpt>
   <trkpt lat="44.971920000000004" lon="6.7395700000000005">
    <ele>2563.5800000000004</ele>
   </trkpt>
   <trkpt lat="44.971900000000005" lon="6.739540000000001">
    <ele>2563.5800000000004</ele>
   </trkpt>
   <trkpt lat="44.971900000000005" lon="6.73948">
    <ele>2563.2400000000002</ele>
   </trkpt>
   <trkpt lat="44.97195000000001" lon="6.7394300000000005">
    <ele>2562.76</ele>
   </trkpt>
   <trkpt lat="44.97196" lon="6.739300000000001">
    <ele>2552.5200000000004</ele>
   </trkpt>
   <trkpt lat="44.971900000000005" lon="6.73915">
    <ele>2545.55</ele>
   </trkpt>
   <trkpt lat="44.971830000000004" lon="6.739120000000001">
    <ele>2545.55</ele>
   </trkpt>
   <trkpt lat="44.971810000000005" lon="6.739090000000001">
    <ele>2545.55</ele>
   </trkpt>
   <trkpt lat="44.97177000000001" lon="6.739090000000001">
    <ele>2543.7700000000004</ele>
   </trkpt>
   <trkpt lat="44.971740000000004" lon="6.73906">
    <ele>2541.8900000000003</ele>
   </trkpt>
   <trkpt lat="44.97171" lon="6.73906">
    <ele>2539.82</ele>
   </trkpt>
   <trkpt lat="44.97169" lon="6.73901">
    <ele>2539.82</ele>
   </trkpt>
   <trkpt lat="44.97155" lon="6.73894">
    <ele>2530.9000000000005</ele>
   </trkpt>
   <trkpt lat="44.97149" lon="6.7388900000000005">
    <ele>2529.08</ele>
   </trkpt>
   <trkpt lat="44.971250000000005" lon="6.7388200000000005">
    <ele>2522.36</ele>
   </trkpt>
   <trkpt lat="44.97110000000001" lon="6.738830000000001">
    <ele>2519.54</ele>
   </trkpt>
   <trkpt lat="44.97104" lon="6.738810000000001">
    <ele>2519.54</ele>
   </trkpt>
   <trkpt lat="44.971000000000004" lon="6.738760000000001">
    <ele>2515.86</ele>
   </trkpt>
   <trkpt lat="44.97095" lon="6.73852">
    <ele>2512.5200000000004</ele>
   </trkpt>
   <trkpt lat="44.97083000000001" lon="6.73843">
    <ele>2508.65</ele>
   </trkpt>
   <trkpt lat="44.970690000000005" lon="6.73824">
    <ele>2506.44</ele>
   </trkpt>
   <trkpt lat="44.970650000000006" lon="6.738150000000001">
    <ele>2497.6900000000005</ele>
   </trkpt>
   <trkpt lat="44.97055" lon="6.738">
    <ele>2497.6900000000005</ele>
   </trkpt>
   <trkpt lat="44.970470000000006" lon="6.737970000000001">
    <ele>2497.6900000000005</ele>
   </trkpt>
   <trkpt lat="44.97037" lon="6.737850000000001">
    <ele>2491.7000000000003</ele>
   </trkpt>
   <trkpt lat="44.970290000000006" lon="6.737830000000001">
    <ele>2491.7000000000003</ele>
   </trkpt>
   <trkpt lat="44.97026" lon="6.73775">
    <ele>2486.46</ele>
   </trkpt>
   <trkpt lat="44.97023" lon="6.73772">
    <ele>2486.46</ele>
   </trkpt>
   <trkpt lat="44.970150000000004" lon="6.7377">
    <ele>2486.46</ele>
   </trkpt>
   <trkpt lat="44.96997" lon="6.737590000000001">
    <ele>2480.35</ele>
   </trkpt>
   <trkpt lat="44.96988" lon="6.73749">
    <ele>2475.0400000000004</ele>
   </trkpt>
   <trkpt lat="44.969440000000006" lon="6.737150000000001">
    <ele>2462.13</ele>
   </trkpt>
   <trkpt lat="44.96914" lon="6.7370600000000005">
    <ele>2450.6800000000003</ele>
   </trkpt>
   <trkpt lat="44.969080000000005" lon="6.737050000000001">
    <ele>2450.6800000000003</ele>
   </trkpt>
   <trkpt lat="44.969010000000004" lon="6.73707">
    <ele>2443.95</ele>
   </trkpt>
   <trkpt lat="44.96895000000001" lon="6.73702">
    <ele>2443.95</ele>
   </trkpt>
   <trkpt lat="44.96885" lon="6.73688">
    <ele>2443.95</ele>
   </trkpt>
   <trkpt lat="44.96876" lon="6.736840000000001">
    <ele>2437.13</ele>
   </trkpt>
   <trkpt lat="44.968720000000005" lon="6.736770000000001">
    <ele>2437.13</ele>
   </trkpt>
   <trkpt lat="44.968630000000005" lon="6.736770000000001">
    <ele>2433.2700000000004</ele>
   </trkpt>
   <trkpt lat="44.96853" lon="6.736860000000001">
    <ele>2427.59</ele>
   </trkpt>
   <trkpt lat="44.96846" lon="6.73678">
    <ele>2426.2000000000003</ele>
   </trkpt>
   <trkpt lat="44.968230000000005" lon="6.736630000000001">
    <ele>2414.32</ele>
   </trkpt>
   <trkpt lat="44.968180000000004" lon="6.73655">
    <ele>2414.32</ele>
   </trkpt>
   <trkpt lat="44.96811" lon="6.736510000000001">
    <ele>2414.32</ele>
   </trkpt>
   <trkpt lat="44.96808" lon="6.736440000000001">
    <ele>2413.0800000000004</ele>
   </trkpt>
   <trkpt lat="44.967980000000004" lon="6.736390000000001">
    <ele>2410.8</ele>
   </trkpt>
   <trkpt lat="44.967850000000006" lon="6.736180000000001">
    <ele>2407.84</ele>
   </trkpt>
   <trkpt lat="44.96757" lon="6.735860000000001">
    <ele>2399.4600000000005</ele>
   </trkpt>
   <trkpt lat="44.96746" lon="6.735830000000001">
    <ele>2395.1200000000003</ele>
   </trkpt>
   <trkpt lat="44.967400000000005" lon="6.735880000000001">
    <ele>2393.8900000000003</ele>
   </trkpt>
   <trkpt lat="44.96734000000001" lon="6.7360500000000005">
    <ele>2391.29</ele>
   </trkpt>
   <trkpt lat="44.96732" lon="6.736070000000001">
    <ele>2387.2500000000005</ele>
   </trkpt>
   <trkpt lat="44.96725000000001" lon="6.73606">
    <ele>2387.2500000000005</ele>
   </trkpt>
   <trkpt lat="44.967180000000006" lon="6.736000000000001">
    <ele>2383.68</ele>
   </trkpt>
   <trkpt lat="44.967150000000004" lon="6.736000000000001">
    <ele>2381.8300000000004</ele>
   </trkpt>
   <trkpt lat="44.96714" lon="6.73615">
    <ele>2376.16</ele>
   </trkpt>
   <trkpt lat="44.96712" lon="6.736210000000001">
    <ele>2376.16</ele>
   </trkpt>
   <trkpt lat="44.96712" lon="6.736400000000001">
    <ele>2370.3</ele>
   </trkpt>
   <trkpt lat="44.96705" lon="6.736400000000001">
    <ele>2367.6000000000004</ele>
   </trkpt>
   <trkpt lat="44.96703" lon="6.736370000000001">
    <ele>2367.6000000000004</ele>
   </trkpt>
   <trkpt lat="44.96697" lon="6.73636">
    <ele>2365.76</ele>
   </trkpt>
   <trkpt lat="44.9669" lon="6.736370000000001">
    <ele>2363.83</ele>
   </trkpt>
   <trkpt lat="44.966840000000005" lon="6.73641">
    <ele>2362.94</ele>
   </trkpt>
   <trkpt lat="44.96672" lon="6.7364500000000005">
    <ele>2361.54</ele>
   </trkpt>
   <trkpt lat="44.96660000000001" lon="6.736350000000001">
    <ele>2359.02</ele>
   </trkpt>
   <trkpt lat="44.966460000000005" lon="6.736350000000001">
    <ele>2354.7900000000004</ele>
   </trkpt>
   <trkpt lat="44.966330000000006" lon="6.736300000000001">
    <ele>2354.7900000000004</ele>
   </trkpt>
   <trkpt lat="44.966210000000004" lon="6.73622">
    <ele>2345.6</ele>
   </trkpt>
   <trkpt lat="44.96603" lon="6.736020000000001">
    <ele>2338.01</ele>
   </trkpt>
   <trkpt lat="44.96611" lon="6.7359800000000005">
    <ele>2338.01</ele>
   </trkpt>
   <trkpt lat="44.96611" lon="6.73596">
    <ele>2338.01</ele>
   </trkpt>
   <trkpt lat="44.965860000000006" lon="6.735740000000001">
    <ele>2327.9400000000005</ele>
   </trkpt>
   <trkpt lat="44.96593" lon="6.735620000000001">
    <ele>2324.19</ele>
   </trkpt>
   <trkpt lat="44.965860000000006" lon="6.73561">
    <ele>2324.19</ele>
   </trkpt>
   <trkpt lat="44.965790000000005" lon="6.735570000000001">
    <ele>2321.7700000000004</ele>
   </trkpt>
   <trkpt lat="44.965790000000005" lon="6.735530000000001">
    <ele>2321.7700000000004</ele>
   </trkpt>
   <trkpt lat="44.96584000000001" lon="6.73549">
    <ele>2321.7700000000004</ele>
   </trkpt>
   <trkpt lat="44.965830000000004" lon="6.73547">
    <ele>2321.7700000000004</ele>
   </trkpt>
   <trkpt lat="44.96576" lon="6.735430000000001">
    <ele>2314.68</ele>
   </trkpt>
   <trkpt lat="44.965590000000006" lon="6.735410000000001">
    <ele>2311.02</ele>
   </trkpt>
   <trkpt lat="44.96566000000001" lon="6.73526">
    <ele>2308.44</ele>
   </trkpt>
   <trkpt lat="44.96551" lon="6.735250000000001">
    <ele>2308.44</ele>
   </trkpt>
   <trkpt lat="44.96542" lon="6.735220000000001">
    <ele>2297.3700000000003</ele>
   </trkpt>
   <trkpt lat="44.965300000000006" lon="6.735270000000001">
    <ele>2296.04</ele>
   </trkpt>
   <trkpt lat="44.96526" lon="6.735270000000001">
    <ele>2294.8</ele>
   </trkpt>
   <trkpt lat="44.96526" lon="6.735220000000001">
    <ele>2294.8</ele>
   </trkpt>
   <trkpt lat="44.965360000000004" lon="6.734850000000001">
    <ele>2287.2700000000004</ele>
   </trkpt>
   <trkpt lat="44.96535" lon="6.73481">
    <ele>2287.2700000000004</ele>
   </trkpt>
   <trkpt lat="44.96531" lon="6.73481">
    <ele>2287.2700000000004</ele>
   </trkpt>
   <trkpt lat="44.96522" lon="6.7349000000000006">
    <ele>2283.2400000000002</ele>
   </trkpt>
   <trkpt lat="44.965180000000004" lon="6.734820000000001">
    <ele>2282.1200000000003</ele>
   </trkpt>
   <trkpt lat="44.965140000000005" lon="6.73479">
    <ele>2280.9000000000005</ele>
   </trkpt>
   <trkpt lat="44.96511" lon="6.73474">
    <ele>2279.58</ele>
   </trkpt>
   <trkpt lat="44.96501000000001" lon="6.734710000000001">
    <ele>2273.8500000000004</ele>
   </trkpt>
   <trkpt lat="44.964940000000006" lon="6.734750000000001">
    <ele>2273.8500000000004</ele>
   </trkpt>
   <trkpt lat="44.96486" lon="6.73472">
    <ele>2271.07</ele>
   </trkpt>
   <trkpt lat="44.96481000000001" lon="6.734660000000001">
    <ele>2268.52</ele>
   </trkpt>
   <trkpt lat="44.964740000000006" lon="6.73465">
    <ele>2267.4800000000005</ele>
   </trkpt>
   <trkpt lat="44.96466" lon="6.734590000000001">
    <ele>2265.9200000000005</ele>
   </trkpt>
   <trkpt lat="44.96453" lon="6.7344100000000005">
    <ele>2263.62</ele>
   </trkpt>
   <trkpt lat="44.964510000000004" lon="6.73434">
    <ele>2263.62</ele>
   </trkpt>
   <trkpt lat="44.96443000000001" lon="6.73432">
    <ele>2262.29</ele>
   </trkpt>
   <trkpt lat="44.964400000000005" lon="6.734330000000001">
    <ele>2261.78</ele>
   </trkpt>
   <trkpt lat="44.964360000000006" lon="6.734310000000001">
    <ele>2261.21</ele>
   </trkpt>
   <trkpt lat="44.96432" lon="6.73434">
    <ele>2261.21</ele>
   </trkpt>
   <trkpt lat="44.96428" lon="6.73432">
    <ele>2259.4100000000003</ele>
   </trkpt>
   <trkpt lat="44.9641" lon="6.7343">
    <ele>2258.55</ele>
   </trkpt>
   <trkpt lat="44.964040000000004" lon="6.734330000000001">
    <ele>2258.55</ele>
   </trkpt>
   <trkpt lat="44.96387000000001" lon="6.734310000000001">
    <ele>2240.81</ele>
   </trkpt>
   <trkpt lat="44.96369000000001" lon="6.73432">
    <ele>2239.52</ele>
   </trkpt>
   <trkpt lat="44.96347" lon="6.734280000000001">
    <ele>2239.09</ele>
   </trkpt>
   <trkpt lat="44.96340000000001" lon="6.73423">
    <ele>2229.35</ele>
   </trkpt>
   <trkpt lat="44.96331000000001" lon="6.7342">
    <ele>2229.35</ele>
   </trkpt>
   <trkpt lat="44.96314" lon="6.7342">
    <ele>2222.3700000000003</ele>
   </trkpt>
   <trkpt lat="44.963100000000004" lon="6.734170000000001">
    <ele>2220.8900000000003</ele>
   </trkpt>
   <trkpt lat="44.96303" lon="6.734190000000001">
    <ele>2218.29</ele>
   </trkpt>
   <trkpt lat="44.96298" lon="6.734170000000001">
    <ele>2217.13</ele>
   </trkpt>
   <trkpt lat="44.962880000000006" lon="6.73406">
    <ele>2214.14</ele>
   </trkpt>
   <trkpt lat="44.96284000000001" lon="6.733980000000001">
    <ele>2212.4700000000003</ele>
   </trkpt>
   <trkpt lat="44.962740000000004" lon="6.73385">
    <ele>2209.3700000000003</ele>
   </trkpt>
   <trkpt lat="44.96264" lon="6.73385">
    <ele>2209.3700000000003</ele>
   </trkpt>
   <trkpt lat="44.962630000000004" lon="6.73378">
    <ele>2204.7000000000003</ele>
   </trkpt>
   <trkpt lat="44.96257000000001" lon="6.7336800000000006">
    <ele>2204.7000000000003</ele>
   </trkpt>
   <trkpt lat="44.962500000000006" lon="6.73366">
    <ele>2202.48</ele>
   </trkpt>
   <trkpt lat="44.96244" lon="6.7336100000000005">
    <ele>2201.4900000000002</ele>
   </trkpt>
   <trkpt lat="44.96222" lon="6.733300000000001">
    <ele>2194.35</ele>
   </trkpt>
   <trkpt lat="44.961960000000005" lon="6.73317">
    <ele>2185.54</ele>
   </trkpt>
   <trkpt lat="44.961830000000006" lon="6.733160000000001">
    <ele>2184.67</ele>
   </trkpt>
   <trkpt lat="44.96168" lon="6.733180000000001">
    <ele>2180.92</ele>
   </trkpt>
   <trkpt lat="44.96154000000001" lon="6.73317">
    <ele>2180.13</ele>
   </trkpt>
   <trkpt lat="44.96141" lon="6.733210000000001">
    <ele>2177.61</ele>
   </trkpt>
   <trkpt lat="44.96123" lon="6.73322">
    <ele>2173.5299999999997</ele>
   </trkpt>
   <trkpt lat="44.96112" lon="6.733180000000001">
    <ele>2172.6800000000003</ele>
   </trkpt>
   <trkpt lat="44.96058" lon="6.733090000000001">
    <ele>2158.96</ele>
   </trkpt>
   <trkpt lat="44.960390000000004" lon="6.73308">
    <ele>2158.96</ele>
   </trkpt>
   <trkpt lat="44.960260000000005" lon="6.733090000000001">
    <ele>2157.4900000000002</ele>
   </trkpt>
   <trkpt lat="44.959830000000004" lon="6.7329300000000005">
    <ele>2149.5800000000004</ele>
   </trkpt>
   <trkpt lat="44.95969" lon="6.7328600000000005">
    <ele>2148.6</ele>
   </trkpt>
   <trkpt lat="44.95953" lon="6.73289">
    <ele>2146.53</ele>
   </trkpt>
   <trkpt lat="44.95933" lon="6.732880000000001">
    <ele>2143.7400000000002</ele>
   </trkpt>
   <trkpt lat="44.95910000000001" lon="6.732900000000001">
    <ele>2141.14</ele>
   </trkpt>
   <trkpt lat="44.95872000000001" lon="6.732760000000001">
    <ele>2135.72</ele>
   </trkpt>
   <trkpt lat="44.95866" lon="6.73277">
    <ele>2135.31</ele>
   </trkpt>
   <trkpt lat="44.958490000000005" lon="6.732850000000001">
    <ele>2134.94</ele>
   </trkpt>
   <trkpt lat="44.958360000000006" lon="6.732950000000001">
    <ele>2136.66</ele>
   </trkpt>
   <trkpt lat="44.95799" lon="6.73317">
    <ele>2137.1800000000003</ele>
   </trkpt>
   <trkpt lat="44.957750000000004" lon="6.73343">
    <ele>2136.6400000000003</ele>
   </trkpt>
   <trkpt lat="44.957390000000004" lon="6.73352">
    <ele>2132.69</ele>
   </trkpt>
   <trkpt lat="44.957300000000004" lon="6.73357">
    <ele>2132.18</ele>
   </trkpt>
   <trkpt lat="44.95713000000001" lon="6.733720000000001">
    <ele>2130.6800000000003</ele>
   </trkpt>
   <trkpt lat="44.95685" lon="6.733890000000001">
    <ele>2129.28</ele>
   </trkpt>
   <trkpt lat="44.95669" lon="6.7339400000000005">
    <ele>2129.77</ele>
   </trkpt>
   <trkpt lat="44.95656" lon="6.7340100000000005">
    <ele>2130.4800000000005</ele>
   </trkpt>
   <trkpt lat="44.95647" lon="6.73402">
    <ele>2131.28</ele>
   </trkpt>
   <trkpt lat="44.956430000000005" lon="6.7341500000000005">
    <ele>2131.6</ele>
   </trkpt>
   <trkpt lat="44.95637000000001" lon="6.73423">
    <ele>2132.63</ele>
   </trkpt>
   <trkpt lat="44.956300000000006" lon="6.73437">
    <ele>2131.79</ele>
   </trkpt>
   <trkpt lat="44.95609" lon="6.734570000000001">
    <ele>2128.9</ele>
   </trkpt>
   <trkpt lat="44.956030000000005" lon="6.734660000000001">
    <ele>2128.4</ele>
   </trkpt>
   <trkpt lat="44.955960000000005" lon="6.73472">
    <ele>2127.4900000000002</ele>
   </trkpt>
   <trkpt lat="44.95591" lon="6.73481">
    <ele>2126.36</ele>
   </trkpt>
   <trkpt lat="44.955890000000004" lon="6.735060000000001">
    <ele>2122.08</ele>
   </trkpt>
   <trkpt lat="44.95581000000001" lon="6.7350900000000005">
    <ele>2115.96</ele>
   </trkpt>
   <trkpt lat="44.955740000000006" lon="6.735040000000001">
    <ele>2115.96</ele>
   </trkpt>
   <trkpt lat="44.955360000000006" lon="6.735010000000001">
    <ele>2106.6800000000003</ele>
   </trkpt>
   <trkpt lat="44.95519" lon="6.735080000000001">
    <ele>2100.93</ele>
   </trkpt>
   <trkpt lat="44.95485" lon="6.735270000000001">
    <ele>2090.04</ele>
   </trkpt>
   <trkpt lat="44.95477" lon="6.735220000000001">
    <ele>2087.3500000000004</ele>
   </trkpt>
   <trkpt lat="44.95468" lon="6.73519">
    <ele>2084.77</ele>
   </trkpt>
   <trkpt lat="44.954640000000005" lon="6.735150000000001">
    <ele>2084.77</ele>
   </trkpt>
   <trkpt lat="44.954570000000004" lon="6.7351600000000005">
    <ele>2080.98</ele>
   </trkpt>
   <trkpt lat="44.95429" lon="6.73507">
    <ele>2072.51</ele>
   </trkpt>
   <trkpt lat="44.954130000000006" lon="6.73491">
    <ele>2067.66</ele>
   </trkpt>
   <trkpt lat="44.953920000000004" lon="6.73505">
    <ele>2064.54</ele>
   </trkpt>
   <trkpt lat="44.95348500025701" lon="6.735280001729523">
    <ele>2065.2000000000003</ele>
   </trkpt>
   <trkpt lat="44.953050000000005" lon="6.7355100000000006">
    <ele>2059.61</ele>
   </trkpt>
   <trkpt lat="44.95279" lon="6.735530000000001">
    <ele>2054.9</ele>
   </trkpt>
   <trkpt lat="44.95270000000001" lon="6.735570000000001">
    <ele>2054.32</ele>
   </trkpt>
   <trkpt lat="44.95248" lon="6.735740000000001">
    <ele>2052.3700000000003</ele>
   </trkpt>
   <trkpt lat="44.9523" lon="6.735810000000001">
    <ele>2051.76</ele>
   </trkpt>
   <trkpt lat="44.952130000000004" lon="6.735860000000001">
    <ele>2050.6200000000003</ele>
   </trkpt>
   <trkpt lat="44.952040000000004" lon="6.735830000000001">
    <ele>2050.2200000000003</ele>
   </trkpt>
   <trkpt lat="44.95192" lon="6.73575">
    <ele>2049.88</ele>
   </trkpt>
   <trkpt lat="44.95163" lon="6.735740000000001">
    <ele>2046.8700000000001</ele>
   </trkpt>
   <trkpt lat="44.9515" lon="6.735720000000001">
    <ele>2046.67</ele>
   </trkpt>
   <trkpt lat="44.95138" lon="6.735740000000001">
    <ele>2045.6800000000003</ele>
   </trkpt>
   <trkpt lat="44.95111000000001" lon="6.73594">
    <ele>2042.3500000000004</ele>
   </trkpt>
   <trkpt lat="44.950810000000004" lon="6.736090000000001">
    <ele>2034.6999999999998</ele>
   </trkpt>
   <trkpt lat="44.95069" lon="6.736260000000001">
    <ele>2030.1</ele>
   </trkpt>
   <trkpt lat="44.95026000000001" lon="6.736770000000001">
    <ele>2022.4299999999998</ele>
   </trkpt>
   <trkpt lat="44.94999000000001" lon="6.737000000000001">
    <ele>2014.99</ele>
   </trkpt>
   <trkpt lat="44.949690000000004" lon="6.7371300000000005">
    <ele>2009.7300000000002</ele>
   </trkpt>
   <trkpt lat="44.949070000000006" lon="6.737500000000001">
    <ele>1994.4800000000002</ele>
   </trkpt>
   <trkpt lat="44.949000000000005" lon="6.737520000000001">
    <ele>1994.4800000000002</ele>
   </trkpt>
   <trkpt lat="44.948820000000005" lon="6.73751">
    <ele>1992.3100000000002</ele>
   </trkpt>
   <trkpt lat="44.948660000000004" lon="6.737550000000001">
    <ele>1988.32</ele>
   </trkpt>
   <trkpt lat="44.94841" lon="6.73758">
    <ele>1987.0900000000001</ele>
   </trkpt>
   <trkpt lat="44.94836" lon="6.7376000000000005">
    <ele>1987.0900000000001</ele>
   </trkpt>
   <trkpt lat="44.948080000000004" lon="6.7376700000000005">
    <ele>1982.0700000000002</ele>
   </trkpt>
   <trkpt lat="44.947970000000005" lon="6.7376700000000005">
    <ele>1981.03</ele>
   </trkpt>
   <trkpt lat="44.947680000000005" lon="6.737610000000001">
    <ele>1977.8600000000001</ele>
   </trkpt>
   <trkpt lat="44.94751" lon="6.737640000000001">
    <ele>1975.92</ele>
   </trkpt>
   <trkpt lat="44.94737000000001" lon="6.73763">
    <ele>1975.92</ele>
   </trkpt>
   <trkpt lat="44.94695" lon="6.737690000000001">
    <ele>1972.63</ele>
   </trkpt>
   <trkpt lat="44.9468" lon="6.737760000000001">
    <ele>1970.8500000000001</ele>
   </trkpt>
   <trkpt lat="44.94668" lon="6.73777">
    <ele>1970.5700000000002</ele>
   </trkpt>
   <trkpt lat="44.94653" lon="6.737830000000001">
    <ele>1969.9100000000003</ele>
   </trkpt>
   <trkpt lat="44.94626" lon="6.7378800000000005">
    <ele>1966.9</ele>
   </trkpt>
   <trkpt lat="44.94619" lon="6.73793">
    <ele>1966.9</ele>
   </trkpt>
   <trkpt lat="44.94605000000001" lon="6.73798">
    <ele>1965.17</ele>
   </trkpt>
   <trkpt lat="44.945620000000005" lon="6.738250000000001">
    <ele>1962.3600000000001</ele>
   </trkpt>
   <trkpt lat="44.94540000000001" lon="6.7383500000000005">
    <ele>1960.4500000000003</ele>
   </trkpt>
   <trkpt lat="44.945220000000006" lon="6.738510000000001">
    <ele>1958.46</ele>
   </trkpt>
   <trkpt lat="44.94485" lon="6.738580000000001">
    <ele>1957.38</ele>
   </trkpt>
   <trkpt lat="44.94433" lon="6.738700000000001">
    <ele>1953.8300000000002</ele>
   </trkpt>
   <trkpt lat="44.944100000000006" lon="6.738810000000001">
    <ele>1952.89</ele>
   </trkpt>
   <trkpt lat="44.94389" lon="6.738840000000001">
    <ele>1952.14</ele>
   </trkpt>
   <trkpt lat="44.9438" lon="6.738880000000001">
    <ele>1951.1</ele>
   </trkpt>
   <trkpt lat="44.94348" lon="6.73908">
    <ele>1948.88</ele>
   </trkpt>
   <trkpt lat="44.9433" lon="6.739140000000001">
    <ele>1948.02</ele>
   </trkpt>
   <trkpt lat="44.94321" lon="6.73915">
    <ele>1947.27</ele>
   </trkpt>
   <trkpt lat="44.94296000000001" lon="6.739090000000001">
    <ele>1944.5200000000002</ele>
   </trkpt>
   <trkpt lat="44.94285000000001" lon="6.73911">
    <ele>1942.4200000000003</ele>
   </trkpt>
   <trkpt lat="44.942690000000006" lon="6.7391700000000005">
    <ele>1940.13</ele>
   </trkpt>
   <trkpt lat="44.942460000000004" lon="6.739310000000001">
    <ele>1938.9300000000003</ele>
   </trkpt>
   <trkpt lat="44.942240000000005" lon="6.739350000000001">
    <ele>1937.9400000000003</ele>
   </trkpt>
   <trkpt lat="44.94216" lon="6.73941">
    <ele>1937.24</ele>
   </trkpt>
   <trkpt lat="44.942040000000006" lon="6.73955">
    <ele>1935.66</ele>
   </trkpt>
   <trkpt lat="44.941950000000006" lon="6.73962">
    <ele>1934.71</ele>
   </trkpt>
   <trkpt lat="44.94173000000001" lon="6.739660000000001">
    <ele>1932.2400000000002</ele>
   </trkpt>
   <trkpt lat="44.94131" lon="6.739700000000001">
    <ele>1925.5300000000002</ele>
   </trkpt>
   <trkpt lat="44.941010000000006" lon="6.73969">
    <ele>1922.2500000000002</ele>
   </trkpt>
   <trkpt lat="44.94082" lon="6.739730000000001">
    <ele>1921.63</ele>
   </trkpt>
   <trkpt lat="44.940690000000004" lon="6.73972">
    <ele>1920.7900000000002</ele>
   </trkpt>
   <trkpt lat="44.940650000000005" lon="6.739700000000001">
    <ele>1920.4800000000002</ele>
   </trkpt>
   <trkpt lat="44.94055" lon="6.739490000000001">
    <ele>1918.7600000000002</ele>
   </trkpt>
   <trkpt lat="44.94050000000001" lon="6.7394300000000005">
    <ele>1918.7600000000002</ele>
   </trkpt>
   <trkpt lat="44.94039" lon="6.73939">
    <ele>1915.96</ele>
   </trkpt>
   <trkpt lat="44.94028" lon="6.7394300000000005">
    <ele>1915.31</ele>
   </trkpt>
   <trkpt lat="44.940200000000004" lon="6.739490000000001">
    <ele>1915.0300000000002</ele>
   </trkpt>
   <trkpt lat="44.93994000000001" lon="6.739820000000001">
    <ele>1913.39</ele>
   </trkpt>
   <trkpt lat="44.9399" lon="6.739840000000001">
    <ele>1913.39</ele>
   </trkpt>
   <trkpt lat="44.939710000000005" lon="6.73983">
    <ele>1912.4900000000002</ele>
   </trkpt>
   <trkpt lat="44.939640000000004" lon="6.739890000000001">
    <ele>1911.76</ele>
   </trkpt>
   <trkpt lat="44.939440000000005" lon="6.740170000000001">
    <ele>1908.8300000000002</ele>
   </trkpt>
   <trkpt lat="44.93936" lon="6.740200000000001">
    <ele>1907.6000000000001</ele>
   </trkpt>
   <trkpt lat="44.9393" lon="6.740200000000001">
    <ele>1907.6000000000001</ele>
   </trkpt>
   <trkpt lat="44.939170000000004" lon="6.740150000000001">
    <ele>1904.98</ele>
   </trkpt>
   <trkpt lat="44.93896" lon="6.7399700000000005">
    <ele>1901.43</ele>
   </trkpt>
   <trkpt lat="44.938810000000004" lon="6.739890000000001">
    <ele>1899.2900000000002</ele>
   </trkpt>
   <trkpt lat="44.938680000000005" lon="6.739870000000001">
    <ele>1898.26</ele>
   </trkpt>
   <trkpt lat="44.93854" lon="6.73988">
    <ele>1897.7</ele>
   </trkpt>
   <trkpt lat="44.93833" lon="6.739940000000001">
    <ele>1896.57</ele>
   </trkpt>
   <trkpt lat="44.93795" lon="6.740130000000001">
    <ele>1894.0500000000002</ele>
   </trkpt>
   <trkpt lat="44.93751" lon="6.74042">
    <ele>1892.98</ele>
   </trkpt>
   <trkpt lat="44.93732000000001" lon="6.740640000000001">
    <ele>1892.27</ele>
   </trkpt>
   <trkpt lat="44.937160000000006" lon="6.740760000000001">
    <ele>1890.9000000000003</ele>
   </trkpt>
   <trkpt lat="44.93692" lon="6.74084">
    <ele>1888.21</ele>
   </trkpt>
   <trkpt lat="44.93683" lon="6.74082">
    <ele>1886.94</ele>
   </trkpt>
   <trkpt lat="44.93672" lon="6.7407200000000005">
    <ele>1885.64</ele>
   </trkpt>
   <trkpt lat="44.93666" lon="6.74063">
    <ele>1885.64</ele>
   </trkpt>
   <trkpt lat="44.93647000000001" lon="6.740150000000001">
    <ele>1883.45</ele>
   </trkpt>
   <trkpt lat="44.93626500201584" lon="6.739474997681777">
    <ele>1881.67</ele>
   </trkpt>
   <trkpt lat="44.936060000000005" lon="6.7388">
    <ele>1878.0100000000002</ele>
   </trkpt>
   <trkpt lat="44.93603" lon="6.738760000000001">
    <ele>1878.0100000000002</ele>
   </trkpt>
   <trkpt lat="44.93601" lon="6.738460000000001">
    <ele>1876.2900000000002</ele>
   </trkpt>
   <trkpt lat="44.935840000000006" lon="6.737410000000001">
    <ele>1870.48</ele>
   </trkpt>
   <trkpt lat="44.93576" lon="6.73716">
    <ele>1869.49</ele>
   </trkpt>
   <trkpt lat="44.93571" lon="6.73711">
    <ele>1869.3600000000001</ele>
   </trkpt>
   <trkpt lat="44.93565" lon="6.737080000000001">
    <ele>1869.14</ele>
   </trkpt>
   <trkpt lat="44.93544000000001" lon="6.73702">
    <ele>1869.17</ele>
   </trkpt>
   <trkpt lat="44.93527" lon="6.736680000000001">
    <ele>1868.75</ele>
   </trkpt>
   <trkpt lat="44.93513" lon="6.736320000000001">
    <ele>1868.5900000000001</ele>
   </trkpt>
   <trkpt lat="44.935050000000004" lon="6.73596">
    <ele>1867.23</ele>
   </trkpt>
   <trkpt lat="44.93498000320241" lon="6.735104999113265">
    <ele>1865.1000000000001</ele>
   </trkpt>
   <trkpt lat="44.93491" lon="6.73425">
    <ele>1866.8700000000001</ele>
   </trkpt>
   <trkpt lat="44.93491" lon="6.734050000000001">
    <ele>1867.3000000000002</ele>
   </trkpt>
   <trkpt lat="44.93493" lon="6.733860000000001">
    <ele>1867.7100000000003</ele>
   </trkpt>
   <trkpt lat="44.935030000000005" lon="6.733460000000001">
    <ele>1869.17</ele>
   </trkpt>
   <trkpt lat="44.935" lon="6.733110000000001">
    <ele>1870.67</ele>
   </trkpt>
   <trkpt lat="44.935" lon="6.7327200000000005">
    <ele>1872.5</ele>
   </trkpt>
   <trkpt lat="44.93502" lon="6.732430000000001">
    <ele>1872.91</ele>
   </trkpt>
   <trkpt lat="44.935080000000006" lon="6.732120000000001">
    <ele>1873.18</ele>
   </trkpt>
   <trkpt lat="44.93529" lon="6.73167">
    <ele>1877.4400000000003</ele>
   </trkpt>
   <trkpt lat="44.93538" lon="6.731510000000001">
    <ele>1878.44</ele>
   </trkpt>
   <trkpt lat="44.935390000000005" lon="6.731190000000001">
    <ele>1879.93</ele>
   </trkpt>
   <trkpt lat="44.935500000000005" lon="6.730840000000001">
    <ele>1882.3200000000002</ele>
   </trkpt>
   <trkpt lat="44.93556" lon="6.7302800000000005">
    <ele>1882.63</ele>
   </trkpt>
   <trkpt lat="44.93558" lon="6.729940000000001">
    <ele>1882.5200000000002</ele>
   </trkpt>
   <trkpt lat="44.935570000000006" lon="6.729610000000001">
    <ele>1882.2900000000002</ele>
   </trkpt>
   <trkpt lat="44.935480000000005" lon="6.729120000000001">
    <ele>1881.4800000000002</ele>
   </trkpt>
   <trkpt lat="44.93553000000001" lon="6.72902">
    <ele>1881.1000000000001</ele>
   </trkpt>
  </trkseg>
 </trk>
</gpx>
